{"type":"FeatureCollection","properties": {"numberMatched":145, "numberReturned":145},            
"bbox": [-15.096163636, 24.871036361, 140.713812117, 73.987599891],
"features": [
{"type":"Feature",
"geometry": {"type":"Polygon",
"coordinates": [
[
[34.585274682,56.106751386],[34.492393747,57.298313010],[37.757726788,57.333482770],
[37.749767708,56.140849584],[34.585274682,56.106751386]]
]},
"properties":{
"id":"2km.1",
"OBJECTID":"202",
"Id":"1",
"NAME":"УКЛ-201",
"NAME1":"УКЛ-201",
"Номер":"0",
"Shape_Leng":"6.57715937392e+05",
"Shape_Area":"2.60174539122e+10",
"region":"РФ",
"масшт":"2"} },
{"type":"Feature",
"geometry": {"type":"Polygon",
"coordinates": [
[
[37.247229250,56.140822802],[37.239156165,57.333455650],[40.504496210,57.298380813],
[40.411728545,56.106815176],[37.247229250,56.140822802]]
]},
"properties":{
"id":"2km.2",
"OBJECTID":"203",
"Id":"1",
"NAME":"УКЛ-202",
"NAME1":"УКЛ-202",
"Номер":"0",
"Shape_Leng":"6.57716281489e+05",
"Shape_Area":"2.60174811364e+10",
"region":"РФ",
"масшт":"2"} },
{"type":"Feature",
"geometry": {"type":"Polygon",
"coordinates": [
[
[34.662393643,55.058027950],[34.574433817,56.249918385],[37.750710245,56.284142263],
[37.743172358,55.091224455],[34.662393643,55.058027950]]
]},
"properties":{
"id":"2km.3",
"OBJECTID":"204",
"Id":"1",
"NAME":"УКЛ-203",
"NAME1":"УКЛ-203",
"Номер":"0",
"Shape_Leng":"6.57729498488e+05",
"Shape_Area":"2.60185243085e+10",
"region":"РФ",
"масшт":"2"} },
{"type":"Feature",
"geometry": {"type":"Polygon",
"coordinates": [
[
[37.253908430,55.091256560],[37.246263804,56.284174034],[40.422551439,56.250041424],
[40.334697412,55.058147167],[37.253908430,55.091256560]]
]},
"properties":{
"id":"2km.4",
"OBJECTID":"205",
"Id":"1",
"NAME":"УКЛ-204",
"NAME1":"УКЛ-204",
"Номер":"0",
"Shape_Leng":"6.57729832134e+05",
"Shape_Area":"2.60185507094e+10",
"region":"РФ",
"масшт":"2"} },
{"type":"Feature",
"geometry": {"type":"Polygon",
"coordinates": [
[
[34.735555279,54.009402851],[34.652136256,55.201225614],[37.744083582,55.234542259],
[37.736933740,54.041733214],[34.735555279,54.009402851]]
]},
"properties":{
"id":"2km.5",
"OBJECTID":"206",
"Id":"1",
"NAME":"УКЛ-205",
"NAME1":"УКЛ-205",
"Номер":"0",
"Shape_Leng":"6.57742690131e+05",
"Shape_Area":"2.60195654662e+10",
"region":"РФ",
"масшт":"2"} },
{"type":"Feature",
"geometry": {"type":"Polygon",
"coordinates": [
[
[37.260305866,54.041721958],[37.253058409,55.234530690],[40.345012564,55.201299809],
[40.261690520,54.009473440],[37.260305866,54.041721958]]
]},
"properties":{
"id":"2km.6",
"OBJECTID":"207",
"Id":"1",
"NAME":"УКЛ-206",
"NAME1":"УКЛ-206",
"Номер":"0",
"Shape_Leng":"6.57743015512e+05",
"Shape_Area":"2.60195912122e+10",
"region":"РФ",
"масшт":"2"} },
{"type":"Feature",
"geometry": {"type":"Polygon",
"coordinates": [
[
[28.334224829,60.021852120],[28.190266907,61.202569685],[31.856176706,61.255756079],
[31.863983766,60.072294479],[28.334224829,60.021852120]]
]},
"properties":{
"id":"2km.7",
"OBJECTID":"229",
"Id":"1",
"NAME":"УКЛ-229",
"NAME1":"УКЛ-229",
"Номер":"0",
"Shape_Leng":"6.58027010335e+05",
"Shape_Area":"2.60026921869e+10",
"region":"РФ",
"масшт":"2"} },
{"type":"Feature",
"geometry": {"type":"Polygon",
"coordinates": [
[
[28.454485189,58.969866093],[28.318462192,60.155180891],[31.873904899,60.191413909],
[31.861001271,59.003498164],[28.454485189,58.969866093]]
]},
"properties":{
"id":"2km.8",
"OBJECTID":"236",
"Id":"1",
"NAME":"УКЛ-231",
"NAME1":"УКЛ-231",
"Номер":"0",
"Shape_Leng":"6.57603272436e+05",
"Shape_Area":"2.59928109563e+10",
"region":"РФ",
"масшт":"2"} },
{"type":"Feature",
"geometry": {"type":"Polygon",
"coordinates": [
[
[31.592461428,60.070065516],[31.571698777,61.246809311],[35.259312103,61.202908830],
[35.138122678,60.031556736],[31.592461428,60.070065516]]
]},
"properties":{
"id":"2km.9",
"OBJECTID":"237",
"Id":"1",
"NAME":"УКЛ-230",
"NAME1":"УКЛ-230",
"Номер":"0",
"Shape_Leng":"6.58165139868e+05",
"Shape_Area":"2.59503171396e+10",
"region":"РФ",
"масшт":"2"} },
{"type":"Feature",
"geometry": {"type":"Polygon",
"coordinates": [
[
[31.610062224,59.005905866],[31.590317981,60.195364268],[35.160866946,60.160308776],
[35.055443889,58.975968544],[31.610062224,59.005905866]]
]},
"properties":{
"id":"2km.10",
"OBJECTID":"239",
"Id":"1",
"NAME":"УКЛ-232",
"NAME1":"УКЛ-232",
"Номер":"0",
"Shape_Leng":"6.60591325434e+05",
"Shape_Area":"2.61907685865e+10",
"region":"РФ",
"масшт":"2"} },
{"type":"Feature",
"geometry": {"type":"Polygon",
"coordinates": [
[
[31.632165313,57.944780633],[31.624050199,59.130006151],[35.064433804,59.098498557],
[34.968716832,57.918293918],[31.632165313,57.944780633]]
]},
"properties":{
"id":"2km.11",
"OBJECTID":"240",
"Id":"1",
"NAME":"УКЛ-234",
"NAME1":"УКЛ-234",
"Номер":"0",
"Shape_Leng":"6.57438601551e+05",
"Shape_Area":"2.59413042064e+10",
"region":"РФ",
"масшт":"2"} },
{"type":"Feature",
"geometry": {"type":"Polygon",
"coordinates": [
[
[31.842914900,57.941732488],[28.562943105,57.889031588],[28.461080982,59.089198024],
[31.858193657,59.131067964],[31.842914900,57.941732488]]
]},
"properties":{
"id":"2km.12",
"OBJECTID":"244",
"Id":"1",
"NAME":"УКЛ-233",
"NAME1":"УКЛ-233",
"Номер":"0",
"Shape_Leng":"6.54507541253e+05",
"Shape_Area":"2.58318908526e+10",
"region":"РФ",
"масшт":"2"} },
{"type":"Feature",
"geometry": {"type":"Polygon",
"coordinates": [
[
[38.558374578,44.240442200],[41.014500167,44.247521859],[40.996711912,43.045272105],
[38.578053337,43.045543010],[38.558374578,44.240442200]]
]},
"properties":{
"id":"2km.13",
"OBJECTID":"247",
"Id":"1",
"NAME":"УКЛ-236",
"NAME1":"УКЛ-236",
"Номер":"0",
"Shape_Leng":"6.72373937667e+05",
"Shape_Area":"2.72088529488e+10",
"region":"РФ",
"масшт":"5"} },
{"type":"Feature",
"geometry": {"type":"Polygon",
"coordinates": [
[
[38.524683129,45.230785425],[41.027554315,45.238124054],[41.009139802,44.033754148],
[38.545485446,44.033782760],[38.524683129,45.230785425]]
]},
"properties":{
"id":"2km.14",
"OBJECTID":"249",
"Id":"1",
"NAME":"УКЛ-235",
"NAME1":"УКЛ-235",
"Номер":"0",
"Shape_Leng":"6.71528381068e+05",
"Shape_Area":"2.71404625472e+10",
"region":"РФ",
"масшт":"5"} },
{"type":"Feature",
"geometry": {"type":"Polygon",
"coordinates": [
[
[38.436787568,47.864518356],[41.072752783,47.872392481],[41.052306657,46.663946653],
[38.460748510,46.663472265],[38.436787568,47.864518356]]
]},
"properties":{
"id":"2km.15",
"OBJECTID":"250",
"Id":"1",
"NAME":"УКЛ-237",
"NAME1":"УКЛ-237",
"Номер":"0",
"Shape_Leng":"6.69211081010e+05",
"Shape_Area":"2.69534752155e+10",
"region":"РФ",
"масшт":"5"} },
{"type":"Feature",
"geometry": {"type":"Polygon",
"coordinates": [
[
[38.462842053,46.875343238],[41.047241477,46.883203860],[41.027781481,45.676016780],
[38.485740768,45.675548615],[38.462842053,46.875343238]]
]},
"properties":{
"id":"2km.16",
"OBJECTID":"251",
"Id":"1",
"NAME":"УКЛ-238",
"NAME1":"УКЛ-238",
"Номер":"0",
"Shape_Leng":"6.70093582280e+05",
"Shape_Area":"2.70246097662e+10",
"region":"РФ",
"масшт":"5"} },
{"type":"Feature",
"geometry": {"type":"Polygon",
"coordinates": [
[
[59.039061385,57.394915934],[62.312231420,57.394684046],[62.267735061,56.188693080],
[59.068112250,56.196143773],[59.039061385,57.394915934]]
]},
"properties":{
"id":"2km.17",
"OBJECTID":"253",
"Id":"1",
"NAME":"УКТ-201",
"NAME1":"УКТ-201",
"Номер":"0",
"Shape_Leng":"6.61732942996e+05",
"Shape_Area":"2.63544539999e+10",
"region":"РФ",
"масшт":"5"} },
{"type":"Feature",
"geometry": {"type":"Polygon",
"coordinates": [
[
[42.474435811,55.680166088],[42.332360789,56.870215994],[45.559603399,56.947894185],
[45.603208731,55.755571971],[42.474435811,55.680166088]]
]},
"properties":{
"id":"2km.18",
"OBJECTID":"254",
"Id":"1",
"NAME":"УКЛ-239",
"NAME1":"УКЛ-239",
"Номер":"0",
"Shape_Leng":"6.57620094919e+05",
"Shape_Area":"2.60098691220e+10",
"region":"РФ",
"масшт":"2"} },
{"type":"Feature",
"geometry": {"type":"Polygon",
"coordinates": [
[
[45.353873959,55.753212409],[45.301774137,56.945513649],[48.535360862,56.947644267],
[48.488446943,55.755348531],[45.353873959,55.753212409]]
]},
"properties":{
"id":"2km.19",
"OBJECTID":"255",
"Id":"1",
"NAME":"УКЛ-240",
"NAME1":"УКЛ-240",
"Номер":"0",
"Shape_Leng":"6.57623891140e+05",
"Shape_Area":"2.60101697830e+10",
"region":"РФ",
"масшт":"2"} },
{"type":"Feature",
"geometry": {"type":"Polygon",
"coordinates": [
[
[42.599242545,54.584921861],[42.465043423,55.775319262],[45.601794828,55.850726344],
[45.642874557,54.658154694],[42.599242545,54.584921861]]
]},
"properties":{
"id":"2km.20",
"OBJECTID":"256",
"Id":"1",
"NAME":"УКЛ-242",
"NAME1":"УКЛ-242",
"Номер":"0",
"Shape_Leng":"6.57687374934e+05",
"Shape_Area":"2.60151888155e+10",
"region":"РФ",
"масшт":"2"} },
{"type":"Feature",
"geometry": {"type":"Polygon",
"coordinates": [
[
[45.398728390,54.655102335],[45.349568389,55.847634213],[48.492016176,55.849629177],
[48.447578245,54.657103966],[45.398728390,54.655102335]]
]},
"properties":{
"id":"2km.21",
"OBJECTID":"257",
"Id":"1",
"NAME":"УКЛ-243",
"NAME1":"УКЛ-243",
"Номер":"0",
"Shape_Leng":"6.57680817618e+05",
"Shape_Area":"2.60146703790e+10",
"region":"РФ",
"масшт":"2"} },
{"type":"Feature",
"geometry": {"type":"Polygon",
"coordinates": [
[
[42.718650406,53.505021506],[42.591605281,54.695634686],[45.644741601,54.768875311],
[45.683486169,53.576177869],[42.718650406,53.505021506]]
]},
"properties":{
"id":"2km.22",
"OBJECTID":"258",
"Id":"1",
"NAME":"УКЛ-245",
"NAME1":"УКЛ-245",
"Номер":"0",
"Shape_Leng":"6.57917219514e+05",
"Shape_Area":"2.60333727206e+10",
"region":"РФ",
"масшт":"2"} },
{"type":"Feature",
"geometry": {"type":"Polygon",
"coordinates": [
[
[45.440550259,53.574423471],[45.394142091,54.767351786],[48.453307330,54.769103624],
[48.410942417,53.576186193],[45.440550259,53.574423471]]
]},
"properties":{
"id":"2km.23",
"OBJECTID":"259",
"Id":"1",
"NAME":"УКЛ-246",
"NAME1":"УКЛ-246",
"Номер":"0",
"Shape_Leng":"6.58059322455e+05",
"Shape_Area":"2.60446201005e+10",
"region":"РФ",
"масшт":"2"} },
{"type":"Feature",
"geometry": {"type":"Polygon",
"coordinates": [
[
[48.227391931,55.758119423],[48.260254043,56.950620612],[51.488966759,56.881888644],
[51.357511888,55.691404852],[48.227391931,55.758119423]]
]},
"properties":{
"id":"2km.24",
"OBJECTID":"260",
"Id":"1",
"NAME":"УКЛ-241",
"NAME1":"УКЛ-241",
"Номер":"0",
"Shape_Leng":"6.57656343784e+05",
"Shape_Area":"2.60127366762e+10",
"region":"РФ",
"масшт":"2"} },
{"type":"Feature",
"geometry": {"type":"Polygon",
"coordinates": [
[
[48.193940693,54.659831969],[48.225100637,55.852552830],[51.363064658,55.785643970],
[51.238683858,54.594858486],[48.193940693,54.659831969]]
]},
"properties":{
"id":"2km.25",
"OBJECTID":"261",
"Id":"1",
"NAME":"УКЛ-244",
"NAME1":"УКЛ-244",
"Номер":"0",
"Shape_Leng":"6.57711548350e+05",
"Shape_Area":"2.60171013040e+10",
"region":"РФ",
"масшт":"2"} },
{"type":"Feature",
"geometry": {"type":"Polygon",
"coordinates": [
[
[48.162792212,53.580431415],[48.197201759,54.773431854],[51.251742536,54.703990188],
[51.128940787,53.512968184],[48.162792212,53.580431415]]
]},
"properties":{
"id":"2km.26",
"OBJECTID":"262",
"Id":"1",
"NAME":"УКЛ-247",
"NAME1":"УКЛ-247",
"Номер":"0",
"Shape_Leng":"6.58056425116e+05",
"Shape_Area":"2.60443905235e+10",
"region":"РФ",
"масшт":"2"} },
{"type":"Feature",
"geometry": {"type":"Polygon",
"coordinates": [
[
[71.820742163,55.608227098],[74.928669720,55.614540788],[74.896321465,54.414378985],
[71.853685358,54.415381382],[71.820742163,55.608227098]]
]},
"properties":{
"id":"2km.27",
"OBJECTID":"263",
"Id":"1",
"NAME":"УКТ-202",
"NAME1":"УКТ-202",
"Номер":"0",
"Shape_Leng":"6.58348159543e+05",
"Shape_Area":"2.60855376577e+10",
"region":"РФ",
"масшт":"5"} },
{"type":"Feature",
"geometry": {"type":"Polygon",
"coordinates": [
[
[81.402883167,55.665582915],[84.515151352,55.673874635],[84.485017073,54.473796104],
[81.438236073,54.472858045],[81.402883167,55.665582915]]
]},
"properties":{
"id":"2km.28",
"OBJECTID":"264",
"Id":"1",
"NAME":"УКТ-203",
"NAME1":"УКТ-203",
"Номер":"0",
"Shape_Leng":"6.58287332293e+05",
"Shape_Area":"2.60807176174e+10",
"region":"РФ",
"масшт":"5"} },
{"type":"Feature",
"geometry": {"type":"Polygon",
"coordinates": [
[
[81.442900926,54.639973778],[84.477127722,54.648339176],[84.448873606,53.447970192],
[81.476412812,53.446961844],[81.442900926,54.639973778]]
]},
"properties":{
"id":"2km.29",
"OBJECTID":"265",
"Id":"1",
"NAME":"УКТ-204",
"NAME1":"УКТ-204",
"Номер":"0",
"Shape_Leng":"6.58632625724e+05",
"Shape_Area":"2.61080855542e+10",
"region":"РФ",
"масшт":"5"} },
{"type":"Feature",
"geometry": {"type":"Polygon",
"coordinates": [
[
[81.480905440,53.615631786],[84.441643087,53.624035497],[84.415074062,52.423501252],
[81.512693646,52.422456575],[81.480905440,53.615631786]]
]},
"properties":{
"id":"2km.30",
"OBJECTID":"266",
"Id":"1",
"NAME":"УКТ-205",
"NAME1":"УКТ-205",
"Номер":"0",
"Shape_Leng":"6.59108739740e+05",
"Shape_Area":"2.61458455828e+10",
"region":"РФ",
"масшт":"5"} },
{"type":"Feature",
"geometry": {"type":"Polygon",
"coordinates": [
[
[35.733029684,63.965506330],[35.462521239,65.154228753],[39.659772365,65.276873610],
[39.767956748,64.084063241],[35.733029684,63.965506330]]
]},
"properties":{
"id":"2km.31",
"OBJECTID":"288",
"Id":"1",
"NAME":"УКЛ-208",
"NAME1":"УКЛ-208",
"Номер":"0",
"Shape_Leng":"6.67298315577e+05",
"Shape_Area":"2.67811504566e+10",
"region":"РФ",
"масшт":"2"} },
{"type":"Feature",
"geometry": {"type":"Polygon",
"coordinates": [
[
[35.981671684,62.812677221],[35.733269835,63.999775788],[39.750247914,64.117032159],
[39.849352789,62.926127224],[35.981671684,62.812677221]]
]},
"properties":{
"id":"2km.32",
"OBJECTID":"291",
"Id":"1",
"NAME":"УКЛ-209",
"NAME1":"УКЛ-209",
"Номер":"0",
"Shape_Leng":"6.63926556758e+05",
"Shape_Area":"2.65111792628e+10",
"region":"РФ",
"масшт":"2"} },
{"type":"Feature",
"geometry": {"type":"Polygon",
"coordinates": [
[
[36.207955860,61.677654759],[35.978009471,62.864926477],[39.839118505,62.977637060],
[39.930613261,61.786787720],[36.207955860,61.677654759]]
]},
"properties":{
"id":"2km.33",
"OBJECTID":"292",
"Id":"1",
"NAME":"УКЛ-210",
"NAME1":"УКЛ-210",
"Номер":"0",
"Shape_Leng":"6.61981870171e+05",
"Shape_Area":"2.63560895796e+10",
"region":"РФ",
"масшт":"2"} },
{"type":"Feature",
"geometry": {"type":"Polygon",
"coordinates": [
[
[36.417882485,60.542997516],[36.203744357,61.731899379],[39.926906743,61.840688533],
[40.011866160,60.648399488],[36.417882485,60.542997516]]
]},
"properties":{
"id":"2km.34",
"OBJECTID":"293",
"Id":"1",
"NAME":"УКЛ-211",
"NAME1":"УКЛ-211",
"Номер":"0",
"Shape_Leng":"6.61198494016e+05",
"Shape_Area":"2.62937380608e+10",
"region":"РФ",
"масшт":"2"} },
{"type":"Feature",
"geometry": {"type":"Polygon",
"coordinates": [
[
[39.648860651,63.938831208],[39.531804814,65.126371162],[43.747600602,65.141862177],
[43.688466396,63.952765813],[39.648860651,63.938831208]]
]},
"properties":{
"id":"2km.35",
"OBJECTID":"294",
"Id":"1",
"NAME":"УКЛ-214",
"NAME1":"УКЛ-214",
"Номер":"0",
"Shape_Leng":"6.67365829174e+05",
"Shape_Area":"2.67460552190e+10",
"region":"РФ",
"масшт":"2"} },
{"type":"Feature",
"geometry": {"type":"Polygon",
"coordinates": [
[
[39.391099979,66.162300009],[39.247276740,67.363695095],[43.907208330,67.382952702],
[43.839071884,66.179796207],[39.391099979,66.162300009]]
]},
"properties":{
"id":"2km.36",
"OBJECTID":"295",
"Id":"1",
"NAME":"УКЛ-212",
"NAME1":"УКЛ-212",
"Номер":"0",
"Shape_Leng":"6.80701034368e+05",
"Shape_Area":"2.78256533029e+10",
"region":"РФ",
"масшт":"2"} },
{"type":"Feature",
"geometry": {"type":"Polygon",
"coordinates": [
[
[39.550787838,65.060158358],[39.424655367,66.247041469],[43.823920337,66.262941482],
[43.759465113,65.074467858],[39.550787838,65.060158358]]
]},
"properties":{
"id":"2km.37",
"OBJECTID":"296",
"Id":"1",
"NAME":"УКЛ-213",
"NAME1":"УКЛ-213",
"Номер":"0",
"Shape_Leng":"6.69535036312e+05",
"Shape_Area":"2.69202279311e+10",
"region":"РФ",
"масшт":"2"} },
{"type":"Feature",
"geometry": {"type":"Polygon",
"coordinates": [
[
[39.739384838,62.817326734],[39.630397672,64.005060819],[43.677409932,64.020169175],
[43.622974484,62.830909801],[39.739384838,62.817326734]]
]},
"properties":{
"id":"2km.38",
"OBJECTID":"297",
"Id":"1",
"NAME":"УКЛ-215",
"NAME1":"УКЛ-215",
"Номер":"0",
"Shape_Leng":"6.65290265666e+05",
"Shape_Area":"2.65799314710e+10",
"region":"РФ",
"масшт":"2"} },
{"type":"Feature",
"geometry": {"type":"Polygon",
"coordinates": [
[
[39.823199319,61.696065196],[39.721419205,62.883549072],[43.612638683,62.898298119],
[43.562372726,61.709317524],[39.823199319,61.696065196]]
]},
"properties":{
"id":"2km.39",
"OBJECTID":"298",
"Id":"1",
"NAME":"УКЛ-216",
"NAME1":"УКЛ-216",
"Номер":"0",
"Shape_Leng":"6.63300850232e+05",
"Shape_Area":"2.64211892638e+10",
"region":"РФ",
"масшт":"2"} },
{"type":"Feature",
"geometry": {"type":"Polygon",
"coordinates": [
[
[39.901023143,60.575450636],[39.805709007,61.762256987],[43.552682633,61.776667517],
[43.506133186,60.588390829],[39.901023143,60.575450636]]
]},
"properties":{
"id":"2km.40",
"OBJECTID":"299",
"Id":"1",
"NAME":"УКЛ-217",
"NAME1":"УКЛ-217",
"Номер":"0",
"Shape_Leng":"6.61390943232e+05",
"Shape_Area":"2.62692392007e+10",
"region":"РФ",
"масшт":"2"} },
{"type":"Feature",
"geometry": {"type":"Polygon",
"coordinates": [
[
[43.689400005,66.177499996],[43.738819878,67.367742327],[48.336177371,67.272170238],
[48.080321387,66.084517603],[43.689400005,66.177499996]]
]},
"properties":{
"id":"2km.41",
"OBJECTID":"300",
"Id":"1",
"NAME":"УКЛ-218",
"NAME1":"УКЛ-218",
"Номер":"0",
"Shape_Leng":"6.73834702353e+05",
"Shape_Area":"2.72671151498e+10",
"region":"РФ",
"масшт":"2"} },
{"type":"Feature",
"geometry": {"type":"Polygon",
"coordinates": [
[
[43.615155179,65.071394180],[43.676884463,66.258776114],[48.061026992,66.156858409],
[47.810242386,64.972203866],[43.615155179,65.071394180]]
]},
"properties":{
"id":"2km.42",
"OBJECTID":"301",
"Id":"1",
"NAME":"УКЛ-219",
"NAME1":"УКЛ-219",
"Номер":"0",
"Shape_Leng":"6.69440650615e+05",
"Shape_Area":"2.69126366221e+10",
"region":"РФ",
"масшт":"2"} },
{"type":"Feature",
"geometry": {"type":"Polygon",
"coordinates": [
[
[43.550446276,63.949620328],[43.606193888,65.137651503],[47.808715487,65.040129200],
[47.578060725,63.854583119],[43.550446276,63.949620328]]
]},
"properties":{
"id":"2km.43",
"OBJECTID":"302",
"Id":"1",
"NAME":"УКЛ-220",
"NAME1":"УКЛ-220",
"Номер":"0",
"Shape_Leng":"6.67279386732e+05",
"Shape_Area":"2.67391253848e+10",
"region":"РФ",
"масшт":"2"} },
{"type":"Feature",
"geometry": {"type":"Polygon",
"coordinates": [
[
[43.490721669,62.827699632],[43.541219780,64.015916952],[47.576519583,63.922477110],
[47.363679571,62.736529049],[43.490721669,62.827699632]]
]},
"properties":{
"id":"2km.44",
"OBJECTID":"303",
"Id":"1",
"NAME":"УКЛ-221",
"NAME1":"УКЛ-221",
"Номер":"0",
"Shape_Leng":"6.65210815107e+05",
"Shape_Area":"2.65735820285e+10",
"region":"РФ",
"масшт":"2"} },
{"type":"Feature",
"geometry": {"type":"Polygon",
"coordinates": [
[
[43.435426946,61.706049102],[43.481295975,62.894007981],[47.362131429,62.804371887],
[47.165131901,61.618489128],[43.435426946,61.706049102]]
]},
"properties":{
"id":"2km.45",
"OBJECTID":"304",
"Id":"1",
"NAME":"УКЛ-222",
"NAME1":"УКЛ-222",
"Номер":"0",
"Shape_Leng":"6.63227586445e+05",
"Shape_Area":"2.64153518216e+10",
"region":"РФ",
"масшт":"2"} },
{"type":"Feature",
"geometry": {"type":"Polygon",
"coordinates": [
[
[43.384086923,60.585069997],[43.425855873,61.772342956],[47.163582412,61.686261214],
[46.980729591,60.500890812],[43.384086923,60.585069997]]
]},
"properties":{
"id":"2km.46",
"OBJECTID":"305",
"Id":"1",
"NAME":"УКЛ-223",
"NAME1":"УКЛ-223",
"Номер":"0",
"Shape_Leng":"6.61323178224e+05",
"Shape_Area":"2.62638554772e+10",
"region":"РФ",
"масшт":"2"} },
{"type":"Feature",
"geometry": {"type":"Polygon",
"coordinates": [
[
[47.666427005,64.973353243],[47.914006266,66.156294583],[52.245080293,65.937912519],
[51.814290392,64.761903340],[47.666427005,64.973353243]]
]},
"properties":{
"id":"2km.47",
"OBJECTID":"306",
"Id":"1",
"NAME":"УКЛ-224",
"NAME1":"УКЛ-224",
"Номер":"0",
"Shape_Leng":"6.69127917515e+05",
"Shape_Area":"2.68874912924e+10",
"region":"РФ",
"масшт":"2"} },
{"type":"Feature",
"geometry": {"type":"Polygon",
"coordinates": [
[
[47.440443864,63.855466718],[47.667300202,65.039399338],[51.823079930,64.830066992],
[51.426266777,63.652564502],[47.440443864,63.855466718]]
]},
"properties":{
"id":"2km.48",
"OBJECTID":"307",
"Id":"1",
"NAME":"УКЛ-225",
"NAME1":"УКЛ-225",
"Номер":"0",
"Shape_Leng":"6.66992529968e+05",
"Shape_Area":"2.67161351035e+10",
"region":"РФ",
"масшт":"2"} },
{"type":"Feature",
"geometry": {"type":"Polygon",
"coordinates": [
[
[47.231755329,62.737169365],[47.440301583,63.921591409],[51.434224362,63.720678530],
[51.067555656,62.542237513],[47.231755329,62.737169365]]
]},
"properties":{
"id":"2km.49",
"OBJECTID":"308",
"Id":"1",
"NAME":"УКЛ-226",
"NAME1":"УКЛ-226",
"Номер":"0",
"Shape_Leng":"6.64946793324e+05",
"Shape_Area":"2.65524874774e+10",
"region":"РФ",
"масшт":"2"} },
{"type":"Feature",
"geometry": {"type":"Polygon",
"coordinates": [
[
[47.038453227,61.618906094],[47.230745226,62.803339848],[51.074782101,62.610283720],
[50.734977192,61.431427469],[47.038453227,61.618906094]]
]},
"properties":{
"id":"2km.50",
"OBJECTID":"309",
"Id":"1",
"NAME":"УКЛ-227",
"NAME1":"УКЛ-227",
"Номер":"0",
"Shape_Leng":"6.62983812601e+05",
"Shape_Area":"2.63959330966e+10",
"region":"РФ",
"масшт":"2"} },
{"type":"Feature",
"geometry": {"type":"Polygon",
"coordinates": [
[
[46.858899625,60.501102280],[47.036699541,61.685091801],[50.741558031,61.499387788],
[50.425792701,60.320611700],[46.858899625,60.501102280]]
]},
"properties":{
"id":"2km.51",
"OBJECTID":"310",
"Id":"1",
"NAME":"УКЛ-228",
"NAME1":"УКЛ-228",
"Номер":"0",
"Shape_Leng":"6.61097439931e+05",
"Shape_Area":"2.62459251081e+10",
"region":"РФ",
"масшт":"2"} },
{"type":"Feature",
"geometry": {"type":"Polygon",
"coordinates": [
[
[133.678932413,50.212138082],[136.425177152,50.283078862],[136.467992933,49.082050008],
[133.770210697,49.019600884],[133.678932413,50.212138082]]
]},
"properties":{
"id":"2km.52",
"OBJECTID":"314",
"Id":"1",
"NAME":"УКД-216",
"NAME1":"УКД-201",
"Номер":"0",
"Shape_Leng":"6.62139477053e+05",
"Shape_Area":"2.63868488401e+10",
"region":"РФ",
"масшт":"5"} },
{"type":"Feature",
"geometry": {"type":"Polygon",
"coordinates": [
[
[133.763051597,49.208035733],[136.453201836,49.277556859],[136.494388377,48.076521469],
[133.850391218,48.015457659],[133.763051597,49.208035733]]
]},
"properties":{
"id":"2km.53",
"OBJECTID":"315",
"Id":"1",
"NAME":"УКД-219",
"NAME1":"УКД-202",
"Номер":"0",
"Shape_Leng":"6.63313376620e+05",
"Shape_Area":"2.64804933198e+10",
"region":"РФ",
"масшт":"5"} },
{"type":"Feature",
"geometry": {"type":"Polygon",
"coordinates": [
[
[133.843266755,48.210010403],[136.481433679,48.278370417],[136.521272269,47.076982398],
[133.927164891,47.017054192],[133.843266755,48.210010403]]
]},
"properties":{
"id":"2km.54",
"OBJECTID":"316",
"Id":"1",
"NAME":"УКД-222",
"NAME1":"УКТ-203",
"Номер":"0",
"Shape_Leng":"6.64849673148e+05",
"Shape_Area":"2.66032975473e+10",
"region":"РФ",
"масшт":"5"} },
{"type":"Feature",
"geometry": {"type":"Polygon",
"coordinates": [
[
[42.818243510,52.467086799],[42.701943421,53.658357606],[45.680941169,53.725394234],
[45.712676395,52.532214071],[42.818243510,52.467086799]]
]},
"properties":{
"id":"2km.55",
"OBJECTID":"317",
"Id":"1",
"NAME":"УКЛ-248",
"NAME1":"УКЛ-248",
"Номер":"0",
"Shape_Leng":"6.58517578702e+05",
"Shape_Area":"2.60808915641e+10",
"region":"РФ",
"масшт":"2"} },
{"type":"Feature",
"geometry": {"type":"Polygon",
"coordinates": [
[
[45.485024242,52.528982204],[45.440359847,53.726553164],[48.435269393,53.728230623],
[48.394393254,52.530679754],[45.485024242,52.528982204]]
]},
"properties":{
"id":"2km.56",
"OBJECTID":"318",
"Id":"1",
"NAME":"УКЛ-249",
"NAME1":"УКЛ-249",
"Номер":"0",
"Shape_Leng":"6.60989431542e+05",
"Shape_Area":"2.62770575502e+10",
"region":"РФ",
"масшт":"2"} },
{"type":"Feature",
"geometry": {"type":"Polygon",
"coordinates": [
[
[42.916771564,51.370877447],[42.800617176,52.565339455],[45.712833639,52.635658818],
[45.748155995,51.439217047],[42.916771564,51.370877447]]
]},
"properties":{
"id":"2km.57",
"OBJECTID":"319",
"Id":"1",
"NAME":"УКЛ-251",
"NAME1":"УКЛ-251",
"Номер":"0",
"Shape_Leng":"6.60954213171e+05",
"Shape_Area":"2.62742553616e+10",
"region":"РФ",
"масшт":"2"} },
{"type":"Feature",
"geometry": {"type":"Polygon",
"coordinates": [
[
[45.520630378,51.431711866],[45.478254804,52.628125411],[48.394741848,52.629749827],
[48.355942438,51.433354780],[45.520630378,51.431711866]]
]},
"properties":{
"id":"2km.58",
"OBJECTID":"320",
"Id":"1",
"NAME":"УКЛ-252",
"NAME1":"УКЛ-252",
"Номер":"0",
"Shape_Leng":"6.60957361807e+05",
"Shape_Area":"2.62745058892e+10",
"region":"РФ",
"масшт":"2"} },
{"type":"Feature",
"geometry": {"type":"Polygon",
"coordinates": [
[
[43.009270982,50.291875729],[42.898630777,51.485204558],[45.738539028,51.553821930],
[45.772261463,50.358582966],[43.009270982,50.291875729]]
]},
"properties":{
"id":"2km.59",
"OBJECTID":"321",
"Id":"1",
"NAME":"УКЛ-254",
"NAME1":"УКЛ-254",
"Номер":"0",
"Shape_Leng":"6.61102961749e+05",
"Shape_Area":"2.62860809328e+10",
"region":"РФ",
"масшт":"2"} },
{"type":"Feature",
"geometry": {"type":"Polygon",
"coordinates": [
[
[45.556797243,50.351416463],[45.516667448,51.546901138],[48.361211540,51.548291591],
[48.324077731,50.352828897],[45.556797243,50.351416463]]
]},
"properties":{
"id":"2km.60",
"OBJECTID":"322",
"Id":"1",
"NAME":"УКЛ-255",
"NAME1":"УКЛ-255",
"Номер":"0",
"Shape_Leng":"6.61255874203e+05",
"Shape_Area":"2.62982424233e+10",
"region":"РФ",
"масшт":"2"} },
{"type":"Feature",
"geometry": {"type":"Polygon",
"coordinates": [
[
[48.135610054,52.531419987],[48.163531652,53.729171955],[51.154441429,53.665291833],
[51.041298168,52.469367386],[48.135610054,52.531419987]]
]},
"properties":{
"id":"2km.61",
"OBJECTID":"323",
"Id":"1",
"NAME":"УКЛ-250",
"NAME1":"УКЛ-250",
"Номер":"0",
"Shape_Leng":"6.61019418893e+05",
"Shape_Area":"2.62794416355e+10",
"region":"РФ",
"масшт":"2"} },
{"type":"Feature",
"geometry": {"type":"Polygon",
"coordinates": [
[
[48.114236430,51.435339164],[48.141029622,52.631921891],[51.053879442,52.569491388],
[50.946196243,51.374672289],[48.114236430,51.435339164]]
]},
"properties":{
"id":"2km.62",
"OBJECTID":"324",
"Id":"1",
"NAME":"УКЛ-253",
"NAME1":"УКЛ-253",
"Номер":"0",
"Shape_Leng":"6.60984718595e+05",
"Shape_Area":"2.62766807390e+10",
"region":"РФ",
"масшт":"2"} },
{"type":"Feature",
"geometry": {"type":"Polygon",
"coordinates": [
[
[48.089232189,50.355267003],[48.119313005,51.550809197],[50.959978841,51.485626944],
[50.852930759,50.291901246],[48.089232189,50.355267003]]
]},
"properties":{
"id":"2km.63",
"OBJECTID":"325",
"Id":"1",
"NAME":"УКЛ-256",
"NAME1":"УКЛ-256",
"Номер":"0",
"Shape_Leng":"6.61250727771e+05",
"Shape_Area":"2.62978329102e+10",
"region":"РФ",
"масшт":"2"} },
{"type":"Feature",
"geometry": {"type":"Polygon",
"coordinates": [
[
[31.623988199,56.863773819],[31.611594820,58.056012898],[34.941771212,58.023621594],
[34.849456502,56.832247885],[31.623988199,56.863773819]]
]},
"properties":{
"id":"2km.64",
"OBJECTID":"326",
"Id":"1",
"NAME":"УКЛ-258",
"NAME1":"УКЛ-258",
"Номер":"0",
"Shape_Leng":"6.57768557597e+05",
"Shape_Area":"2.60216219923e+10",
"region":"РФ",
"масшт":"2"} },
{"type":"Feature",
"geometry": {"type":"Polygon",
"coordinates": [
[
[28.654000571,56.819737780],[28.545278918,58.010972185],[31.875223888,58.056778936],
[31.879287631,56.864157393],[28.654000571,56.819737780]]
]},
"properties":{
"id":"2km.65",
"OBJECTID":"327",
"Id":"1",
"NAME":"УКЛ-257",
"NAME1":"УКЛ-257",
"Номер":"0",
"Shape_Leng":"6.57940015363e+05",
"Shape_Area":"2.60351896465e+10",
"region":"РФ",
"масшт":"2"} },
{"type":"Feature",
"geometry": {"type":"Polygon",
"coordinates": [
[
[28.744510443,55.766822506],[28.641630127,56.958113187],[31.877188833,57.002679872],
[31.880998745,55.810054779],[28.744510443,55.766822506]]
]},
"properties":{
"id":"2km.66",
"OBJECTID":"328",
"Id":"1",
"NAME":"УКЛ-259",
"NAME1":"УКЛ-259",
"Номер":"0",
"Shape_Leng":"6.57644224345e+05",
"Shape_Area":"2.60117784265e+10",
"region":"РФ",
"масшт":"2"} },
{"type":"Feature",
"geometry": {"type":"Polygon",
"coordinates": [
[
[31.643931244,55.809541736],[31.632586690,57.002089279],[34.869123470,56.970213524],
[34.781308271,55.778504488],[31.643931244,55.809541736]]
]},
"properties":{
"id":"2km.67",
"OBJECTID":"329",
"Id":"1",
"NAME":"УКЛ-260",
"NAME1":"УКЛ-260",
"Номер":"0",
"Shape_Leng":"6.57640618199e+05",
"Shape_Area":"2.60114932095e+10",
"region":"РФ",
"масшт":"2"} },
{"type":"Feature",
"geometry": {"type":"Polygon",
"coordinates": [
[
[28.830077504,54.715994600],[28.732621043,55.907519942],[31.880684245,55.950816194],
[31.884117115,54.758007172],[28.830077504,54.715994600]]
]},
"properties":{
"id":"2km.68",
"OBJECTID":"330",
"Id":"1",
"NAME":"УКЛ-261",
"NAME1":"УКЛ-261",
"Номер":"0",
"Shape_Leng":"6.57670330654e+05",
"Shape_Area":"2.60138368774e+10",
"region":"РФ",
"масшт":"2"} },
{"type":"Feature",
"geometry": {"type":"Polygon",
"coordinates": [
[
[34.577150219,53.055120558],[34.534691237,54.247806924],[37.554835434,54.246949248],
[37.510374646,53.054218822],[34.577150219,53.055120558]]
]},
"properties":{
"id":"2km.69",
"OBJECTID":"331",
"Id":"1",
"NAME":"УКЛ-265",
"NAME1":"УКЛ-265",
"Номер":"0",
"Shape_Leng":"6.58100156562e+05",
"Shape_Area":"2.60478408947e+10",
"region":"РФ",
"масшт":"2"} },
{"type":"Feature",
"geometry": {"type":"Polygon",
"coordinates": [
[
[31.658052346,54.757618209],[31.647447758,55.950319995],[34.796318882,55.919107291],
[34.712825172,54.727214546],[31.658052346,54.757618209]]
]},
"properties":{
"id":"2km.70",
"OBJECTID":"333",
"Id":"1",
"NAME":"УКЛ-262",
"NAME1":"УКЛ-262",
"Номер":"0",
"Shape_Leng":"6.57650408350e+05",
"Shape_Area":"2.60122608996e+10",
"region":"РФ",
"масшт":"2"} },
{"type":"Feature",
"geometry": {"type":"Polygon",
"coordinates": [
[
[31.917679683,52.994060072],[31.800776878,54.185223382],[34.817206108,54.251065611],
[34.847502997,53.058017285],[31.917679683,52.994060072]]
]},
"properties":{
"id":"2km.71",
"OBJECTID":"334",
"Id":"1",
"NAME":"УКЛ-264",
"NAME1":"УКЛ-264",
"Номер":"0",
"Shape_Leng":"6.58221047116e+05",
"Shape_Area":"2.60574113630e+10",
"region":"РФ",
"масшт":"2"} },
{"type":"Feature",
"geometry": {"type":"Polygon",
"coordinates": [
[
[31.790357774,54.042522652],[31.780153585,55.235650030],[34.873539698,55.204897214],
[34.792782588,54.012559675],[31.790357774,54.042522652]]
]},
"properties":{
"id":"2km.72",
"OBJECTID":"335",
"Id":"1",
"NAME":"УКЛ-263",
"NAME1":"УКЛ-263",
"Номер":"0",
"Shape_Leng":"6.57957545043e+05",
"Shape_Area":"2.60365587400e+10",
"region":"РФ",
"масшт":"2"} },
{"type":"Feature",
"geometry": {"type":"Polygon",
"coordinates": [
[
[34.610831263,51.996618981],[34.570471580,53.189676680],[37.516690578,53.188710573],
[37.474140892,51.995611536],[34.610831263,51.996618981]]
]},
"properties":{
"id":"2km.73",
"OBJECTID":"336",
"Id":"1",
"NAME":"УКЛ-268",
"NAME1":"УКЛ-268",
"Номер":"0",
"Shape_Leng":"6.58781950055e+05",
"Shape_Area":"2.61018340243e+10",
"region":"РФ",
"масшт":"2"} },
{"type":"Feature",
"geometry": {"type":"Polygon",
"coordinates": [
[
[37.184249247,51.993358749],[37.214435442,53.186525931],[40.156274694,53.121058593],
[40.043509868,51.929614013],[37.184249247,51.993358749]]
]},
"properties":{
"id":"2km.74",
"OBJECTID":"337",
"Id":"1",
"NAME":"УКЛ-269",
"NAME1":"УКЛ-269",
"Номер":"0",
"Shape_Leng":"6.58814131123e+05",
"Shape_Area":"2.61043839600e+10",
"region":"РФ",
"масшт":"2"} },
{"type":"Feature",
"geometry": {"type":"Polygon",
"coordinates": [
[
[37.213110549,53.057322757],[37.244767721,54.250240028],[40.260898033,54.183258054],
[40.142646934,52.992121691],[37.213110549,53.057322757]]
]},
"properties":{
"id":"2km.75",
"OBJECTID":"338",
"Id":"1",
"NAME":"УКЛ-266",
"NAME1":"УКЛ-266",
"Номер":"0",
"Shape_Leng":"6.58194440975e+05",
"Shape_Area":"2.60553048255e+10",
"region":"РФ",
"масшт":"2"} },
{"type":"Feature",
"geometry": {"type":"Polygon",
"coordinates": [
[
[32.014132593,51.937078067],[31.902793417,53.128505218],[34.845178389,53.192717709],
[34.873913662,51.999466651],[32.014132593,51.937078067]]
]},
"properties":{
"id":"2km.76",
"OBJECTID":"339",
"Id":"1",
"NAME":"УКЛ-267",
"NAME1":"УКЛ-267",
"Номер":"0",
"Shape_Leng":"6.58811051971e+05",
"Shape_Area":"2.61041400063e+10",
"region":"РФ",
"масшт":"2"} },
{"type":"Feature",
"geometry": {"type":"Polygon",
"coordinates": [
[
[32.106784169,50.872326602],[32.000648717,52.064075166],[34.873162292,52.126682969],
[34.900386090,50.933168297],[32.106784169,50.872326602]]
]},
"properties":{
"id":"2km.77",
"OBJECTID":"340",
"Id":"1",
"NAME":"УКЛ-270",
"NAME1":"УКЛ-270",
"Номер":"0",
"Shape_Leng":"6.59647269615e+05",
"Shape_Area":"2.61704432335e+10",
"region":"РФ",
"масшт":"2"} },
{"type":"Feature",
"geometry": {"type":"Polygon",
"coordinates": [
[
[34.643177213,50.930500368],[34.604717256,52.123788708],[37.480703111,52.122763419],
[37.439978558,50.929435108],[34.643177213,50.930500368]]
]},
"properties":{
"id":"2km.78",
"OBJECTID":"341",
"Id":"1",
"NAME":"УКЛ-271",
"NAME1":"УКЛ-271",
"Номер":"0",
"Shape_Leng":"6.59599399515e+05",
"Shape_Area":"2.61666451926e+10",
"region":"РФ",
"масшт":"2"} },
{"type":"Feature",
"geometry": {"type":"Polygon",
"coordinates": [
[
[32.193474533,49.829383601],[32.092019627,51.021339590],[34.899932086,51.082480416],
[34.925816425,49.888809933],[32.193474533,49.829383601]]
]},
"properties":{
"id":"2km.79",
"OBJECTID":"342",
"Id":"1",
"NAME":"УКЛ-273",
"NAME1":"УКЛ-273",
"Номер":"0",
"Shape_Leng":"6.60610411292e+05",
"Shape_Area":"2.62469156075e+10",
"region":"РФ",
"масшт":"2"} },
{"type":"Feature",
"geometry": {"type":"Polygon",
"coordinates": [
[
[37.131013544,49.888416872],[37.158543178,51.081933428],[39.966128750,51.019291742],
[39.863042212,49.827394387],[37.131013544,49.888416872]]
]},
"properties":{
"id":"2km.80",
"OBJECTID":"343",
"Id":"1",
"NAME":"УКЛ-275",
"NAME1":"УКЛ-275",
"Номер":"0",
"Shape_Leng":"6.60572774027e+05",
"Shape_Area":"2.62439249037e+10",
"region":"РФ",
"масшт":"2"} },
{"type":"Feature",
"geometry": {"type":"Polygon",
"coordinates": [
[
[34.673439418,49.886228564],[34.636701437,51.079716873],[37.447943768,51.078627144],
[37.408857233,49.885100383],[34.673439418,49.886228564]]
]},
"properties":{
"id":"2km.81",
"OBJECTID":"344",
"Id":"1",
"NAME":"УКЛ-274",
"NAME1":"УКЛ-274",
"Номер":"0",
"Shape_Leng":"6.60586267544e+05",
"Shape_Area":"2.62449972626e+10",
"region":"РФ",
"масшт":"2"} },
{"type":"Feature",
"geometry": {"type":"Polygon",
"coordinates": [
[
[37.156815357,50.932693874],[37.185634585,52.126085276],[40.057886176,52.062056646],
[39.950165644,50.870334251],[37.156815357,50.932693874]]
]},
"properties":{
"id":"2km.82",
"OBJECTID":"345",
"Id":"1",
"NAME":"УКЛ-272",
"NAME1":"УКЛ-272",
"Номер":"0",
"Shape_Leng":"6.59626331844e+05",
"Shape_Area":"2.61687818849e+10",
"region":"РФ",
"масшт":"2"} },
{"type":"Feature",
"geometry": {"type":"Polygon",
"coordinates": [
[
[133.183031799,55.387318654],[136.272188854,55.465795709],[136.324423752,54.266393008],
[133.299015404,54.196610874],[133.183031799,55.387318654]]
]},
"properties":{
"id":"2km.83",
"OBJECTID":"346",
"Id":"1",
"NAME":"УКД-201",
"NAME1":"УКД-201",
"Номер":"0",
"Shape_Leng":"6.58114440253e+05",
"Shape_Area":"2.60670212704e+10",
"region":"РФ",
"масшт":"5"} },
{"type":"Feature",
"geometry": {"type":"Polygon",
"coordinates": [
[
[135.883806012,55.453609361],[138.978644834,55.466747477],[138.954569652,54.266968443],
[135.924343147,54.261275276],[135.883806012,55.453609361]]
]},
"properties":{
"id":"2km.84",
"OBJECTID":"347",
"Id":"1",
"NAME":"УКД-202",
"NAME1":"УКД-201",
"Номер":"0",
"Shape_Leng":"6.58123610673e+05",
"Shape_Area":"2.60677464477e+10",
"region":"РФ",
"масшт":"5"} },
{"type":"Feature",
"geometry": {"type":"Polygon",
"coordinates": [
[
[138.627031721,55.462492994],[141.719085153,55.409361403],[141.617914380,54.210702334],
[138.590708826,54.270000691],[138.627031721,55.462492994]]
]},
"properties":{
"id":"2km.85",
"OBJECTID":"348",
"Id":"1",
"NAME":"УКД-203",
"NAME1":"УКД-201",
"Номер":"0",
"Shape_Leng":"6.58219135190e+05",
"Shape_Area":"2.60753132087e+10",
"region":"РФ",
"масшт":"5"} },
{"type":"Feature",
"geometry": {"type":"Polygon",
"coordinates": [
[
[133.292546539,54.344639253],[136.304229544,54.421451758],[136.354290668,53.221549007],
[133.402728820,53.153383589],[133.292546539,54.344639253]]
]},
"properties":{
"id":"2km.86",
"OBJECTID":"349",
"Id":"1",
"NAME":"УКД-204",
"NAME1":"УКД-201",
"Номер":"0",
"Shape_Leng":"6.58617945443e+05",
"Shape_Area":"2.61069231147e+10",
"region":"РФ",
"масшт":"5"} },
{"type":"Feature",
"geometry": {"type":"Polygon",
"coordinates": [
[
[135.927145251,54.409357096],[138.943991659,54.422380828],[138.921426927,53.222159577],
[135.965499372,53.216580179],[135.927145251,54.409357096]]
]},
"properties":{
"id":"2km.87",
"OBJECTID":"350",
"Id":"1",
"NAME":"УКД-205",
"NAME1":"УКД-201",
"Номер":"0",
"Shape_Leng":"6.58600510641e+05",
"Shape_Area":"2.61055397107e+10",
"region":"РФ",
"масшт":"5"} },
{"type":"Feature",
"geometry": {"type":"Polygon",
"coordinates": [
[
[138.601036486,54.419406778],[141.615561101,54.367823458],[141.519700012,53.168624039],
[138.566341622,53.226424146],[138.601036486,54.419406778]]
]},
"properties":{
"id":"2km.88",
"OBJECTID":"351",
"Id":"1",
"NAME":"УКД-206",
"NAME1":"УКД-201",
"Номер":"0",
"Shape_Leng":"6.58721760109e+05",
"Shape_Area":"2.61151517044e+10",
"region":"РФ",
"масшт":"5"} },
{"type":"Feature",
"geometry": {"type":"Polygon",
"coordinates": [
[
[133.396804963,53.315920974],[136.336574609,53.391110342],[136.384574634,52.190786987],
[133.501650244,52.124200338],[133.396804963,53.315920974]]
]},
"properties":{
"id":"2km.89",
"OBJECTID":"352",
"Id":"1",
"NAME":"УКД-207",
"NAME1":"УКД-201",
"Номер":"0",
"Shape_Leng":"6.59276714048e+05",
"Shape_Area":"2.61591751508e+10",
"region":"РФ",
"масшт":"5"} },
{"type":"Feature",
"geometry": {"type":"Polygon",
"coordinates": [
[
[133.497493554,52.263875953],[136.368098043,52.337474163],[136.414123613,51.136748859],
[133.597296331,51.071711829],[133.497493554,52.263875953]]
]},
"properties":{
"id":"2km.90",
"OBJECTID":"353",
"Id":"1",
"NAME":"УКД-210",
"NAME1":"УКД-201",
"Номер":"0",
"Shape_Leng":"6.60138977600e+05",
"Shape_Area":"2.62276466978e+10",
"region":"РФ",
"масшт":"5"} },
{"type":"Feature",
"geometry": {"type":"Polygon",
"coordinates": [
[
[135.969271038,53.379123217],[138.913748721,53.391974681],[138.892471961,52.191383705],
[136.005579397,52.185974709],[135.969271038,53.379123217]]
]},
"properties":{
"id":"2km.91",
"OBJECTID":"354",
"Id":"1",
"NAME":"УКД-208",
"NAME1":"УКД-201",
"Номер":"0",
"Shape_Leng":"6.59237022599e+05",
"Shape_Area":"2.61560242556e+10",
"region":"РФ",
"масшт":"5"} },
{"type":"Feature",
"geometry": {"type":"Polygon",
"coordinates": [
[
[138.578880595,53.389282306],[141.520856668,53.338993640],[141.429654655,52.139543990],
[138.545493200,52.196090513],[138.578880595,53.389282306]]
]},
"properties":{
"id":"2km.92",
"OBJECTID":"355",
"Id":"1",
"NAME":"УКД-209",
"NAME1":"УКД-201",
"Номер":"0",
"Shape_Leng":"6.59269476885e+05",
"Shape_Area":"2.61585986748e+10",
"region":"РФ",
"масшт":"5"} },
{"type":"Feature",
"geometry": {"type":"Polygon",
"coordinates": [
[
[136.009276637,52.325615775],[138.884275192,52.338319226],[138.864219763,51.137331867],
[136.043689926,51.132069869],[136.009276637,52.325615775]]
]},
"properties":{
"id":"2km.93",
"OBJECTID":"356",
"Id":"1",
"NAME":"УКД-211",
"NAME1":"УКД-201",
"Номер":"0",
"Shape_Leng":"6.60101819941e+05",
"Shape_Area":"2.62246930502e+10",
"region":"РФ",
"масшт":"5"} },
{"type":"Feature",
"geometry": {"type":"Polygon",
"coordinates": [
[
[138.557210064,52.331483610],[141.429417830,52.282482703],[141.342640392,51.082685259],
[138.525108815,51.137983546],[138.557210064,52.331483610]]
]},
"properties":{
"id":"2km.94",
"OBJECTID":"357",
"Id":"1",
"NAME":"УКД-212",
"NAME1":"УКД-201",
"Номер":"0",
"Shape_Leng":"6.60088302798e+05",
"Shape_Area":"2.62236181230e+10",
"region":"РФ",
"масшт":"5"} },
{"type":"Feature",
"geometry": {"type":"Polygon",
"coordinates": [
[
[133.591481334,51.231562873],[136.398039790,51.303711476],[136.442303138,50.102680678],
[133.686752830,50.039056307],[133.591481334,51.231562873]]
]},
"properties":{
"id":"2km.95",
"OBJECTID":"358",
"Id":"1",
"NAME":"УКД-213",
"NAME1":"УКД-201",
"Номер":"0",
"Shape_Leng":"6.61133900402e+05",
"Shape_Area":"2.63067636716e+10",
"region":"РФ",
"масшт":"5"} },
{"type":"Feature",
"geometry": {"type":"Polygon",
"coordinates": [
[
[136.045793027,51.292061719],[138.856689749,51.304635583],[138.837738210,50.103256047],
[136.078508371,50.098123171],[136.045793027,51.292061719]]
]},
"properties":{
"id":"2km.96",
"OBJECTID":"359",
"Id":"1",
"NAME":"УКД-214",
"NAME1":"УКД-201",
"Номер":"0",
"Shape_Leng":"6.61149253585e+05",
"Shape_Area":"2.63079843896e+10",
"region":"РФ",
"масшт":"5"} },
{"type":"Feature",
"geometry": {"type":"Polygon",
"coordinates": [
[
[138.537024382,51.298484950],[141.345079800,51.250662752],[141.262269560,50.050557249],
[138.506078190,50.104711814],[138.537024382,51.298484950]]
]},
"properties":{
"id":"2km.97",
"OBJECTID":"360",
"Id":"1",
"NAME":"УКД-215",
"NAME1":"УКД-201",
"Номер":"0",
"Shape_Leng":"6.61069816443e+05",
"Shape_Area":"2.63016620899e+10",
"region":"РФ",
"масшт":"5"} },
{"type":"Feature",
"geometry": {"type":"Polygon",
"coordinates": [
[
[136.081387139,50.268825218],[138.831405186,50.282296197],[138.814538066,49.080996249],
[136.113584646,49.074981640],[136.081387139,50.268825218]]
]},
"properties":{
"id":"2km.98",
"OBJECTID":"361",
"Id":"1",
"NAME":"УКД-217",
"NAME1":"УКД-201",
"Номер":"0",
"Shape_Leng":"6.62113764793e+05",
"Shape_Area":"2.63847985055e+10",
"region":"РФ",
"масшт":"5"} },
{"type":"Feature",
"geometry": {"type":"Polygon",
"coordinates": [
[
[138.517945934,50.277157944],[141.266342778,50.230456926],[141.187169231,49.029990924],
[138.488084605,49.083056631],[138.517945934,50.277157944]]
]},
"properties":{
"id":"2km.99",
"OBJECTID":"362",
"Id":"1",
"NAME":"УКД-218",
"NAME1":"УКД-201",
"Номер":"0",
"Shape_Leng":"6.62261467392e+05",
"Shape_Area":"2.63965706386e+10",
"region":"РФ",
"масшт":"5"} },
{"type":"Feature",
"geometry": {"type":"Polygon",
"coordinates": [
[
[136.121929453,49.265945992],[138.814767007,49.279128509],[138.798646471,48.078272253],
[136.152494888,48.072537874],[136.121929453,49.265945992]]
]},
"properties":{
"id":"2km.100",
"OBJECTID":"363",
"Id":"1",
"NAME":"УКД-220",
"NAME1":"УКД-201",
"Номер":"0",
"Shape_Leng":"6.63042060951e+05",
"Shape_Area":"2.64588340823e+10",
"region":"РФ",
"масшт":"5"} },
{"type":"Feature",
"geometry": {"type":"Polygon",
"coordinates": [
[
[138.497891328,49.273576206],[141.188822232,49.229987591],[141.115101112,48.030108935],
[138.471074235,48.080123820],[138.497891328,49.273576206]]
]},
"properties":{
"id":"2km.101",
"OBJECTID":"364",
"Id":"1",
"NAME":"УКД-221",
"NAME1":"УКД-201",
"Номер":"0",
"Shape_Leng":"6.63060906810e+05",
"Shape_Area":"2.64603373977e+10",
"region":"РФ",
"масшт":"5"} },
{"type":"Feature",
"geometry": {"type":"Polygon",
"coordinates": [
[
[136.153722110,48.266685872],[138.791887038,48.279755384],[138.776631011,47.079687221],
[136.182929335,47.074058831],[136.153722110,48.266685872]]
]},
"properties":{
"id":"2km.102",
"OBJECTID":"365",
"Id":"1",
"NAME":"УКД-223",
"NAME1":"УКД-201",
"Номер":"0",
"Shape_Leng":"6.63949702479e+05",
"Shape_Area":"2.65313225739e+10",
"region":"РФ",
"масшт":"5"} },
{"type":"Feature",
"geometry": {"type":"Polygon",
"coordinates": [
[
[138.480780120,48.274153246],[141.120388330,48.230077686],[141.048198054,47.029491361],
[138.453404261,47.079995297],[138.480780120,48.274153246]]
]},
"properties":{
"id":"2km.103",
"OBJECTID":"366",
"Id":"1",
"NAME":"УКД-224",
"NAME1":"УКД-201",
"Номер":"0",
"Shape_Leng":"6.64806657729e+05",
"Shape_Area":"2.65998534269e+10",
"region":"РФ",
"масшт":"5"} },
{"type":"Feature",
"geometry": {"type":"Polygon",
"coordinates": [
[
[21.403760011,54.266480006],[21.400877587,55.459427134],[24.510753905,55.422087724],
[24.421759111,54.230116296],[21.403760011,54.266480006]]
]},
"properties":{
"id":"2km.104",
"OBJECTID":"367",
"Id":"1",
"NAME":"УКЛ-291",
"NAME1":"УКЛ-261",
"Номер":"0",
"Shape_Leng":"6.57820595380e+05",
"Shape_Area":"2.60257225066e+10",
"region":"РФ",
"масшт":"2"} },
{"type":"Feature",
"geometry": {"type":"Polygon",
"coordinates": [
[
[18.663024318,54.232886306],[18.578152644,55.424835248],[21.688097967,55.458665365],
[21.681086512,54.265703331],[18.663024318,54.232886306]]
]},
"properties":{
"id":"2km.105",
"OBJECTID":"368",
"Id":"1",
"NAME":"УКЛ-290",
"NAME1":"УКЛ-290",
"Номер":"0",
"Shape_Leng":"6.57792303466e+05",
"Shape_Area":"2.60234839097e+10",
"region":"РФ",
"масшт":"2"} },
{"type":"Feature",
"geometry": {"type":"Polygon",
"coordinates": [
[
[44.565871167,47.334773686],[44.536086435,48.531648137],[47.210554416,48.527007847],
[47.171644564,47.330316101],[44.565871167,47.334773686]]
]},
"properties":{
"id":"2km.106",
"OBJECTID":"369",
"Id":"1",
"NAME":"УКЛ-276",
"NAME1":"УКЛ-276",
"Номер":"0",
"Shape_Leng":"6.65368634151e+05",
"Shape_Area":"2.66263743755e+10",
"region":"РФ",
"масшт":"2"} },
{"type":"Feature",
"geometry": {"type":"Polygon",
"coordinates": [
[
[44.586116081,46.311472918],[44.557227182,47.505761665],[47.173478301,47.501560489],
[47.136492800,46.307441958],[44.586116081,46.311472918]]
]},
"properties":{
"id":"2km.107",
"OBJECTID":"370",
"Id":"1",
"NAME":"УКЛ-279",
"NAME1":"УКЛ-279",
"Номер":"0",
"Shape_Leng":"6.65444947140e+05",
"Shape_Area":"2.66324771924e+10",
"region":"РФ",
"масшт":"2"} },
{"type":"Feature",
"geometry": {"type":"Polygon",
"coordinates": [
[
[44.605776095,45.279909711],[44.578026844,46.474506473],[47.145054808,46.470257203],
[47.109269315,45.275831546],[44.605776095,45.279909711]]
]},
"properties":{
"id":"2km.108",
"OBJECTID":"371",
"Id":"1",
"NAME":"УКЛ-282",
"NAME1":"УКЛ-282",
"Номер":"0",
"Shape_Leng":"6.67323248315e+05",
"Shape_Area":"2.67830314625e+10",
"region":"РФ",
"масшт":"2"} },
{"type":"Feature",
"geometry": {"type":"Polygon",
"coordinates": [
[
[44.624353566,44.269274158],[44.597638569,45.464150727],[47.118958229,45.459861044],
[47.084274147,44.265156339],[44.624353566,44.269274158]]
]},
"properties":{
"id":"2km.109",
"OBJECTID":"372",
"Id":"1",
"NAME":"УКЛ-285",
"NAME1":"УКЛ-285",
"Номер":"0",
"Shape_Leng":"6.69331150851e+05",
"Shape_Area":"2.69444436720e+10",
"region":"РФ",
"масшт":"2"} },
{"type":"Feature",
"geometry": {"type":"Polygon",
"coordinates": [
[
[46.804858953,44.268359685],[46.824227536,45.463314188],[49.343191394,45.409844336],
[49.262583883,44.216349342],[46.804858953,44.268359685]]
]},
"properties":{
"id":"2km.110",
"OBJECTID":"373",
"Id":"1",
"NAME":"УКЛ-286",
"NAME1":"УКЛ-286",
"Номер":"0",
"Shape_Leng":"6.69357279552e+05",
"Shape_Area":"2.69465473020e+10",
"region":"РФ",
"масшт":"2"} },
{"type":"Feature",
"geometry": {"type":"Polygon",
"coordinates": [
[
[49.059374686,45.234238367],[49.127764946,46.430374785],[51.690709988,46.325247875],
[51.559177831,45.131932350],[49.059374686,45.234238367]]
]},
"properties":{
"id":"2km.111",
"OBJECTID":"374",
"Id":"1",
"NAME":"УКЛ-284",
"NAME1":"УКЛ-284",
"Номер":"0",
"Shape_Leng":"6.68751152042e+05",
"Shape_Area":"2.68977718813e+10",
"region":"РФ",
"масшт":"2"} },
{"type":"Feature",
"geometry": {"type":"Polygon",
"coordinates": [
[
[46.825144544,45.278962817],[46.845368222,46.475911170],[49.414879582,46.421253447],
[49.331059297,45.225802323],[46.825144544,45.278962817]]
]},
"properties":{
"id":"2km.112",
"OBJECTID":"375",
"Id":"1",
"NAME":"УКЛ-283",
"NAME1":"УКЛ-283",
"Номер":"0",
"Shape_Leng":"6.68616884107e+05",
"Shape_Area":"2.68869724361e+10",
"region":"РФ",
"масшт":"2"} },
{"type":"Feature",
"geometry": {"type":"Polygon",
"coordinates": [
[
[46.846611272,46.310449859],[46.867347745,47.504955118],[49.481260299,47.449708015],
[49.394820000,46.256718088],[46.846611272,46.310449859]]
]},
"properties":{
"id":"2km.113",
"OBJECTID":"376",
"Id":"1",
"NAME":"УКЛ-280",
"NAME1":"УКЛ-280",
"Номер":"0",
"Shape_Leng":"6.65545090281e+05",
"Shape_Area":"2.66404935811e+10",
"region":"РФ",
"масшт":"2"} },
{"type":"Feature",
"geometry": {"type":"Polygon",
"coordinates": [
[
[46.868722263,47.333933242],[46.890310394,48.528440568],[49.556396100,48.472124117],
[49.466585983,47.279166878],[46.868722263,47.333933242]]
]},
"properties":{
"id":"2km.114",
"OBJECTID":"377",
"Id":"1",
"NAME":"УКЛ-277",
"NAME1":"УКЛ-277",
"Номер":"0",
"Shape_Leng":"6.64034692584e+05",
"Shape_Area":"2.65197190900e+10",
"region":"РФ",
"масшт":"2"} },
{"type":"Feature",
"geometry": {"type":"Polygon",
"coordinates": [
[
[49.189487430,47.287697332],[49.263380821,48.483225417],[51.926343825,48.374065234],
[51.784550634,47.181485739],[49.189487430,47.287697332]]
]},
"properties":{
"id":"2km.115",
"OBJECTID":"378",
"Id":"1",
"NAME":"УКЛ-278",
"NAME1":"УКЛ-278",
"Номер":"0",
"Shape_Leng":"6.65214561268e+05",
"Shape_Area":"2.66140441221e+10",
"region":"РФ",
"масшт":"2"} },
{"type":"Feature",
"geometry": {"type":"Polygon",
"coordinates": [
[
[49.118100069,46.261500006],[49.187466736,47.457485048],[51.799499905,47.352111356],
[51.664670062,46.158963594],[49.118100069,46.261500006]]
]},
"properties":{
"id":"2km.116",
"OBJECTID":"379",
"Id":"1",
"NAME":"УКЛ-281",
"NAME1":"УКЛ-281",
"Номер":"0",
"Shape_Leng":"6.66947449515e+05",
"Shape_Area":"2.67528793063e+10",
"region":"РФ",
"масшт":"2"} },
{"type":"Feature",
"geometry": {"type":"Polygon",
"coordinates": [
[
[49.000027276,44.224420150],[49.065985613,45.420833644],[51.583582808,45.317542695],
[51.456584856,44.123894444],[49.000027276,44.224420150]]
]},
"properties":{
"id":"2km.117",
"OBJECTID":"380",
"Id":"1",
"NAME":"УКЛ-287",
"NAME1":"УКЛ-287",
"Номер":"0",
"Shape_Leng":"6.70750199236e+05",
"Shape_Area":"2.70588145033e+10",
"region":"РФ",
"масшт":"2"} },
{"type":"Feature",
"geometry": {"type":"Polygon",
"coordinates": [
[
[133.727030607,47.134824168],[136.313243211,47.192391831],[136.342315242,45.990184400],
[133.798192597,45.940857325],[133.727030607,47.134824168]]
]},
"properties":{
"id":"2km.118",
"OBJECTID":"381",
"Id":"1",
"NAME":"УКД-225",
"NAME1":"УКД-225",
"Номер":"0",
"Shape_Leng":"6.66887049351e+05",
"Shape_Area":"2.67665936651e+10",
"region":"РФ",
"масшт":"5"} },
{"type":"Feature",
"geometry": {"type":"Polygon",
"coordinates": [
[
[136.025598156,47.180224997],[138.613464162,47.189483620],[138.595336836,45.987540970],
[136.049957295,45.985667621],[136.025598156,47.180224997]]
]},
"properties":{
"id":"2km.119",
"OBJECTID":"382",
"Id":"1",
"NAME":"УКД-226",
"NAME1":"УКД-226",
"Номер":"0",
"Shape_Leng":"6.66666923705e+05",
"Shape_Area":"2.67489255679e+10",
"region":"РФ",
"масшт":"5"} },
{"type":"Feature",
"geometry": {"type":"Polygon",
"coordinates": [
[
[133.069449993,46.247158003],[135.613047903,46.319453677],[135.656312176,45.117479253],
[133.153034827,45.053677804],[133.069449993,46.247158003]]
]},
"properties":{
"id":"2km.120",
"OBJECTID":"383",
"Id":"1",
"NAME":"УКД-227",
"NAME1":"УКД-227",
"Номер":"0",
"Shape_Leng":"6.68368244143e+05",
"Shape_Area":"2.68856257764e+10",
"region":"РФ",
"масшт":"5"} },
{"type":"Feature",
"geometry": {"type":"Polygon",
"coordinates": [
[
[135.397720911,46.312312113],[137.945481066,46.334086876],[137.940115822,45.131604067],
[135.433202174,45.117438612],[135.397720911,46.312312113]]
]},
"properties":{
"id":"2km.121",
"OBJECTID":"384",
"Id":"1",
"NAME":"УКД-228",
"NAME1":"УКД-228",
"Номер":"0",
"Shape_Leng":"6.68394424218e+05",
"Shape_Area":"2.68877310988e+10",
"region":"РФ",
"масшт":"5"} },
{"type":"Feature",
"geometry": {"type":"Polygon",
"coordinates": [
[
[135.432868512,45.269389134],[137.933464024,45.290924061],[137.928499494,44.088453228],
[135.466950197,44.074522845],[135.432868512,45.269389134]]
]},
"properties":{
"id":"2km.122",
"OBJECTID":"385",
"Id":"1",
"NAME":"УКД-231",
"NAME1":"УКД-231",
"Номер":"0",
"Shape_Leng":"6.70333119435e+05",
"Shape_Area":"2.70439336812e+10",
"region":"РФ",
"масшт":"5"} },
{"type":"Feature",
"geometry": {"type":"Polygon",
"coordinates": [
[
[130.887083076,45.358605421],[133.388131357,45.478762437],[133.476596025,44.277852784],
[131.013828334,44.167014619],[130.887083076,45.358605421]]
]},
"properties":{
"id":"2km.123",
"OBJECTID":"386",
"Id":"1",
"NAME":"УКД-229",
"NAME1":"УКД-229",
"Номер":"0",
"Shape_Leng":"6.70053642284e+05",
"Shape_Area":"2.70213901246e+10",
"region":"РФ",
"масшт":"5"} },
{"type":"Feature",
"geometry": {"type":"Polygon",
"coordinates": [
[
[130.988548753,44.442909517],[133.446345746,44.560989046],[133.532008944,43.361909384],
[131.110908426,43.253091488],[130.988548753,44.442909517]]
]},
"properties":{
"id":"2km.124",
"OBJECTID":"387",
"Id":"1",
"NAME":"УКД-232",
"NAME1":"УКД-232",
"Номер":"0",
"Shape_Leng":"6.70837552585e+05",
"Shape_Area":"2.70846523508e+10",
"region":"РФ",
"масшт":"5"} },
{"type":"Feature",
"geometry": {"type":"Polygon",
"coordinates": [
[
[130.290590852,43.387226299],[132.708508269,43.519409034],[132.807368319,42.320753903],
[130.422264579,42.201430442],[130.290590852,43.387226299]]
]},
"properties":{
"id":"2km.125",
"OBJECTID":"388",
"Id":"1",
"NAME":"УКД-234",
"NAME1":"УКД-234",
"Номер":"0",
"Shape_Leng":"6.73645166114e+05",
"Shape_Area":"2.72930564321e+10",
"region":"РФ",
"масшт":"5"} },
{"type":"Feature",
"geometry": {"type":"Polygon",
"coordinates": [
[
[133.146491258,45.208941174],[135.657161620,45.280909762],[135.685655700,44.077988749],
[133.227025255,44.015253851],[133.146491258,45.208941174]]
]},
"properties":{
"id":"2km.126",
"OBJECTID":"389",
"Id":"1",
"NAME":"УКД-230",
"NAME1":"УКД-230",
"Номер":"0",
"Shape_Leng":"6.71543079995e+05",
"Shape_Area":"2.71289069199e+10",
"region":"РФ",
"масшт":"5"} },
{"type":"Feature",
"geometry": {"type":"Polygon",
"coordinates": [
[
[133.226682020,44.176376769],[135.683740445,44.247815910],[135.714287589,43.045391062],
[133.302955202,42.985087096],[133.226682020,44.176376769]]
]},
"properties":{
"id":"2km.127",
"OBJECTID":"390",
"Id":"1",
"NAME":"УКД-233",
"NAME1":"УКД-233",
"Номер":"0",
"Shape_Leng":"6.72155363803e+05",
"Shape_Area":"2.71872424060e+10",
"region":"РФ",
"масшт":"5"} },
{"type":"Feature",
"geometry": {"type":"Polygon",
"coordinates": [
[
[132.403821762,43.761025320],[134.839315694,43.849063407],[134.896466984,42.647146742],
[132.497121111,42.567867663],[132.403821762,43.761025320]]
]},
"properties":{
"id":"2km.128",
"OBJECTID":"391",
"Id":"1",
"NAME":"УКД-235",
"NAME1":"УКД-235",
"Номер":"0",
"Shape_Leng":"6.73453347466e+05",
"Shape_Area":"2.72962848454e+10",
"region":"РФ",
"масшт":"5"} },
{"type":"Feature",
"geometry": {"type":"Polygon",
"coordinates": [
[
[37.108302802,48.812091670],[37.134638169,50.005427624],[39.878755887,49.944120735],
[39.780077892,48.752356945],[37.108302802,48.812091670]]
]},
"properties":{
"id":"2km.129",
"OBJECTID":"392",
"Id":"1",
"NAME":"УКЛ-292",
"NAME1":"УКЛ-292",
"Номер":"0",
"Shape_Leng":"6.61581682157e+05",
"Shape_Area":"2.63241463923e+10",
"region":"РФ",
"масшт":"2"} },
{"type":"Feature",
"geometry": {"type":"Polygon",
"coordinates": [
[
[36.451381683,47.799270630],[36.461008564,48.992167649],[39.149079065,48.947722822],
[39.069860452,47.755940330],[36.451381683,47.799270630]]
]},
"properties":{
"id":"2km.130",
"OBJECTID":"393",
"Id":"1",
"NAME":"УКЛ-293",
"NAME1":"УКЛ-293",
"Номер":"0",
"Shape_Leng":"6.62505425273e+05",
"Shape_Area":"2.63977035040e+10",
"region":"РФ",
"масшт":"2"} },
{"type":"Feature",
"geometry": {"type":"Polygon",
"coordinates": [
[
[36.026734274,46.776594893],[36.022850373,47.971094071],[38.661843964,47.940777690],
[38.598512916,46.747014406],[36.026734274,46.776594893]]
]},
"properties":{
"id":"2km.131",
"OBJECTID":"394",
"Id":"1",
"NAME":"УКЛ-294",
"NAME1":"УКЛ-294",
"Номер":"0",
"Shape_Leng":"6.64809691986e+05",
"Shape_Area":"2.65816461926e+10",
"region":"РФ",
"масшт":"2"} },
{"type":"Feature",
"geometry": {"type":"Polygon",
"coordinates": [
[
[35.973016967,45.706641181],[35.970965451,46.897319723],[38.548470812,46.866017290],
[38.486253656,45.676095076],[35.973016967,45.706641181]]
]},
"properties":{
"id":"2km.132",
"OBJECTID":"395",
"Id":"1",
"NAME":"УКЛ-295",
"NAME1":"УКЛ-295",
"Номер":"0",
"Shape_Leng":"6.64371364142e+05",
"Shape_Area":"2.65466001509e+10",
"region":"РФ",
"масшт":"2"} },
{"type":"Feature",
"geometry": {"type":"Polygon",
"coordinates": [
[
[34.897958613,44.611191010],[34.871141453,45.799968815],[37.394888009,45.795688668],
[37.359943383,44.606955425],[34.897958613,44.611191010]]
]},
"properties":{
"id":"2km.133",
"OBJECTID":"396",
"Id":"1",
"NAME":"УКЛ-298",
"NAME1":"УКЛ-298",
"Номер":"0",
"Shape_Leng":"6.65313381891e+05",
"Shape_Area":"2.66219295806e+10",
"region":"РФ",
"масшт":"2"} },
{"type":"Feature",
"geometry": {"type":"Polygon",
"coordinates": [
[
[32.547111892,44.266849227],[32.468385494,45.460160861],[34.989247648,45.511400711],
[35.006393972,44.316674453],[32.547111892,44.266849227]]
]},
"properties":{
"id":"2km.134",
"OBJECTID":"397",
"Id":"1",
"NAME":"УКЛ-297",
"NAME1":"УКЛ-297",
"Номер":"0",
"Shape_Leng":"6.69124607985e+05",
"Shape_Area":"2.69278080206e+10",
"region":"РФ",
"масшт":"2"} },
{"type":"Feature",
"geometry": {"type":"Polygon",
"coordinates": [
[
[32.485775930,45.251849104],[32.408497990,46.445236840],[34.974497952,46.492959214],
[34.988078303,45.298245560],[32.485775930,45.251849104]]
]},
"properties":{
"id":"2km.135",
"OBJECTID":"398",
"Id":"1",
"NAME":"УКЛ-296",
"NAME1":"УКЛ-296",
"Номер":"0",
"Shape_Leng":"6.67306671630e+05",
"Shape_Area":"2.67816917186e+10",
"region":"РФ",
"масшт":"2"} },
{"type":"Feature",
"geometry": {"type":"Polygon",
"coordinates": [
[
[39.004072962,45.990021668],[38.918743939,44.226591904],[37.248116622,44.251284787],
[37.286836009,46.028037388],[39.004072962,45.990021668]]
]},
"properties":{
"id":"2km.136",
"OBJECTID":"399",
"Id":"1",
"NAME":"УКЛ-299",
"NAME1":"УКЛ-299",
"Номер":"0",
"Shape_Leng":"6.69775472340e+05",
"Shape_Area":"2.69991763989e+10",
"region":"РФ",
"масшт":"5"} },
{"type":"Feature",
"geometry": {"type":"Polygon",
"coordinates": [
[
[31.787780951,46.373796778],[31.688495978,47.566286644],[34.307950221,47.634364887],
[34.341037361,46.440005901],[31.787780951,46.373796778]]
]},
"properties":{
"id":"2km.137",
"OBJECTID":"400",
"Id":"1",
"NAME":"УКЛ-301",
"NAME1":"УКЛ-301",
"Номер":"0",
"Shape_Leng":"6.65338107894e+05",
"Shape_Area":"2.66239174937e+10",
"region":"РФ",
"масшт":"2"} },
{"type":"Feature",
"geometry": {"type":"Polygon",
"coordinates": [
[
[34.288330079,48.241138238],[36.078131435,48.255343166],[36.073794637,46.483211724],
[34.345997390,46.472931983],[34.288330079,48.241138238]]
]},
"properties":{
"id":"2km.138",
"OBJECTID":"401",
"Id":"1",
"NAME":"УКЛ-300",
"NAME1":"УКЛ-300",
"Номер":"0",
"Shape_Leng":"6.64877841400e+05",
"Shape_Area":"2.65870926894e+10",
"region":"РФ",
"масшт":"2"} },
{"type":"Feature",
"geometry": {"type":"Polygon",
"coordinates": [
[
[39.535223518,49.836833768],[39.625599154,51.030254963],[42.425863924,50.907516508],
[42.260815864,49.717323574],[39.535223518,49.836833768]]
]},
"properties":{
"id":"2km.139",
"OBJECTID":"402",
"Id":"1",
"NAME":"УКЛ-305",
"NAME1":"УКЛ-305",
"Номер":"0",
"Shape_Leng":"6.61294650900e+05",
"Shape_Area":"2.63013236177e+10",
"region":"РФ",
"масшт":"2"} },
{"type":"Feature",
"geometry": {"type":"Polygon",
"coordinates": [
[
[39.615767300,50.880154066],[39.710332919,52.073314739],[42.574398619,51.947819203],
[42.401897216,50.757984350],[39.615767300,50.880154066]]
]},
"properties":{
"id":"2km.140",
"OBJECTID":"403",
"Id":"1",
"NAME":"УКЛ-304",
"NAME1":"УКЛ-304",
"Номер":"0",
"Shape_Leng":"6.60297481644e+05",
"Shape_Area":"2.62220691214e+10",
"region":"РФ",
"масшт":"2"} },
{"type":"Feature",
"geometry": {"type":"Polygon",
"coordinates": [
[
[39.701389815,51.939714545],[39.800515278,53.132199901],[42.732418101,53.003815082],
[42.551813858,51.814760438],[39.701389815,51.939714545]]
]},
"properties":{
"id":"2km.141",
"OBJECTID":"404",
"Id":"1",
"NAME":"УКЛ-303",
"NAME1":"УКЛ-303",
"Номер":"0",
"Shape_Leng":"6.59262938483e+05",
"Shape_Area":"2.61399705795e+10",
"region":"РФ",
"масшт":"2"} },
{"type":"Feature",
"geometry": {"type":"Polygon",
"coordinates": [
[
[39.791557920,53.003684572],[39.895603160,54.195065717],[42.898958746,54.063682306],
[42.709621600,52.875843706],[39.791557920,53.003684572]]
]},
"properties":{
"id":"2km.142",
"OBJECTID":"405",
"Id":"1",
"NAME":"УКЛ-302",
"NAME1":"УКЛ-302",
"Номер":"0",
"Shape_Leng":"6.58200552124e+05",
"Shape_Area":"2.60557964533e+10",
"region":"РФ",
"масшт":"2"} },
{"type":"Feature",
"geometry": {"type":"Polygon",
"coordinates": [
[
[39.935936170,56.111778261],[40.008129706,57.303829366],[43.263623015,57.202524441],
[43.091429514,56.013425305],[39.935936170,56.111778261]]
]},
"properties":{
"id":"2km.143",
"OBJECTID":"406",
"Id":"1",
"NAME":"УКЛ-288",
"NAME1":"УКЛ-288",
"Номер":"0",
"Shape_Leng":"6.57784149116e+05",
"Shape_Area":"2.60228501273e+10",
"region":"РФ",
"масшт":"2"} },
{"type":"Feature",
"geometry": {"type":"Polygon",
"coordinates": [
[
[39.871129066,55.064339803],[39.939597290,56.258725188],[43.112542580,56.159840817],
[42.948843851,54.968309066],[39.871129066,55.064339803]]
]},
"properties":{
"id":"2km.144",
"OBJECTID":"407",
"Id":"1",
"NAME":"УКЛ-289",
"NAME1":"УКЛ-289",
"Номер":"0",
"Shape_Leng":"6.58913077055e+05",
"Shape_Area":"2.61122441654e+10",
"region":"РФ",
"масшт":"2"} },
{"type":"Feature",
"geometry": {"type":"Polygon",
"coordinates": [
[
[39.818178210,54.015201356],[39.883442379,55.211475694],[42.977875591,55.114712700],
[42.821814404,53.921205803],[39.818178210,54.015201356]]
]},
"properties":{
"id":"2km.145",
"OBJECTID":"408",
"Id":"1",
"NAME":"УКЛ-207",
"NAME1":"УКЛ-207",
"Номер":"0",
"Shape_Leng":"6.60016160140e+05",
"Shape_Area":"2.61997397768e+10",
"region":"РФ",
"масшт":"2"} }
]  }
