{"type":"FeatureCollection","properties":{"numberMatched":131,"numberReturned":131},"bbox":[-13.946307061,23.211153616,141.28564771,73.133764422],"features":[{"type":"Feature","geometry":{"type":"Polygon","coordinates":[[[92.581803509,58.053027618],[92.19307729,61.027211824],[101.301141405,61.030745751],[100.920736867,58.056267811],[92.581803509,58.053027618]]]},"properties":{"id":"5km10km.1","":"","NAME":"УКТ-25"}},{"type":"Feature","geometry":{"type":"Polygon","coordinates":[[[130.083833345,42.203668685],[129.934870242,45.190163343],[136.196551342,45.186631717],[136.041520017,42.200316095],[130.083833345,42.203668685]]]},"properties":{"id":"5km10km.2","":"","NAME":"УКД-1"}},{"type":"Feature","geometry":{"type":"Polygon","coordinates":[[[126.543846101,49.26181132],[126.316064058,52.243331796],[133.522924165,52.248189421],[133.30507174,49.266265848],[126.543846101,49.26181132]]]},"properties":{"id":"5km10km.3","":"","NAME":"УКД-3 A"}},{"type":"Feature","geometry":{"type":"Polygon","coordinates":[[[98.653466339,49.752529089],[98.296241173,52.728568677],[105.588180745,52.852547187],[105.488441188,49.868768666],[98.653466339,49.752529089]]]},"properties":{"id":"5km10km.4","":"","NAME":"УКИ-1"}},{"type":"Feature","geometry":{"type":"Polygon","coordinates":[[[133.30435478,49.267374553],[133.060976643,52.248487021],[140.269669184,52.268593381],[140.067343462,49.286344674],[133.30435478,49.267374553]]]},"properties":{"id":"5km10km.5","":"","NAME":"УКД-9 A"}},{"type":"Feature","geometry":{"type":"Polygon","coordinates":[[[125.709992276,57.905254906],[125.315886485,60.879255438],[134.38314818,60.889290761],[134.014320678,57.914284862],[125.709992276,57.905254906]]]},"properties":{"id":"5km10km.6","":"","NAME":"УКД-6"}},{"type":"Feature","geometry":{"type":"Polygon","coordinates":[[[134.006147446,57.922340891],[133.639195911,60.897420068],[142.708596329,60.885828707],[142.312356556,57.911889549],[134.006147446,57.922340891]]]},"properties":{"id":"5km10km.7","":"","NAME":"УКД-12"}},{"type":"Feature","geometry":{"type":"Polygon","coordinates":[[[91.270152788,55.17078089],[90.988089643,58.148535142],[99.343735355,58.118423215],[98.991178808,55.142967699],[91.270152788,55.17078089]]]},"properties":{"id":"5km10km.8","":"","NAME":"УКТ-24"}},{"type":"Feature","geometry":{"type":"Polygon","coordinates":[[[132.592299739,55.020406017],[132.272448011,57.997009515],[140.597410456,58.00119657],[140.287183128,55.024299008],[132.592299739,55.020406017]]]},"properties":{"id":"5km10km.9","":"","NAME":"УКД-11"}},{"type":"Feature","geometry":{"type":"Polygon","coordinates":[[[124.903910071,55.004922205],[124.568647904,57.981073796],[132.891442728,57.998508794],[132.596795878,55.02114475],[124.903910071,55.004922205]]]},"properties":{"id":"5km10km.10","":"","NAME":"УКД-5"}},{"type":"Feature","geometry":{"type":"Polygon","coordinates":[[[85.049234937,52.311902887],[84.832360882,55.29248587],[92.575379479,55.248665797],[92.262590813,52.27105784],[85.049234937,52.311902887]]]},"properties":{"id":"5km10km.11","":"","NAME":"УКТ-21"}},{"type":"Feature","geometry":{"type":"Polygon","coordinates":[[[92.229617921,52.251322043],[92.026263917,55.232098672],[99.75605997,55.176579082],[99.4312789,52.199577262],[92.229617921,52.251322043]]]},"properties":{"id":"5km10km.12","":"","NAME":"УКТ-23"}},{"type":"Feature","geometry":{"type":"Polygon","coordinates":[[[99.429971267,52.199276673],[99.16814402,55.178424405],[106.893549446,55.176518485],[106.627530204,52.197453078],[99.429971267,52.199276673]]]},"properties":{"id":"5km10km.13","":"","NAME":"УКИ-2"}},{"type":"Feature","geometry":{"type":"Polygon","coordinates":[[[132.736259432,52.173094615],[132.460653354,55.151882739],[140.182241076,55.163023627],[139.930756712,52.183505072],[132.736259432,52.173094615]]]},"properties":{"id":"5km10km.14","":"","NAME":"УКД-10"}},{"type":"Feature","geometry":{"type":"Polygon","coordinates":[[[125.546294641,52.181445249],[125.293452565,55.161035745],[133.014675287,55.15143839],[132.74061015,52.172612242],[125.546294641,52.181445249]]]},"properties":{"id":"5km10km.15","":"","NAME":"УКД-4"}},{"type":"Feature","geometry":{"type":"Polygon","coordinates":[[[75.849875278,55.267741974],[75.549760089,58.244162242],[83.926746122,58.229061417],[83.59009111,55.254068075],[75.849875278,55.267741974]]]},"properties":{"id":"5km10km.16","":"","NAME":"УКТ-14"}},{"type":"Feature","geometry":{"type":"Polygon","coordinates":[[[75.94076615,58.099093446],[75.56589452,61.073031504],[84.683643781,61.064747114],[84.287436361,58.09156596],[75.94076615,58.099093446]]]},"properties":{"id":"5km10km.17","":"","NAME":"УКТ-15"}},{"type":"Feature","geometry":{"type":"Polygon","coordinates":[[[91.713679738,49.36958966],[91.496174993,52.351079133],[98.719344971,52.344644059],[98.488808304,49.363246557],[91.713679738,49.36958966]]]},"properties":{"id":"5km10km.18","":"","NAME":"УКТ-22"}},{"type":"Feature","geometry":{"type":"Polygon","coordinates":[[[84.937046169,49.389291045],[84.734010831,52.37148003],[91.959614165,52.350293938],[91.714183015,49.369654357],[84.937046169,49.389291045]]]},"properties":{"id":"5km10km.19","":"","NAME":"УКТ-20"}},{"type":"Feature","geometry":{"type":"Polygon","coordinates":[[[98.984666016,55.142231055],[98.654812942,58.118404354],[107.008423126,58.129293369],[106.703931843,55.152280823],[98.984666016,55.142231055]]]},"properties":{"id":"5km10km.20","":"","NAME":"УКИ-3 A"}},{"type":"Feature","geometry":{"type":"Polygon","coordinates":[[[109.23970584,57.916333967],[108.89440607,60.892087662],[117.959704954,60.863649966],[117.542609264,57.890458007],[109.23970584,57.916333967]]]},"properties":{"id":"5km10km.21","":"","NAME":"УКИ-8"}},{"type":"Feature","geometry":{"type":"Polygon","coordinates":[[[109.515491477,55.030452288],[109.230399238,58.008258396],[117.554349543,57.982890021],[117.209726784,55.007168362],[109.515491477,55.030452288]]]},"properties":{"id":"5km10km.22","":"","NAME":"УКИ-7"}},{"type":"Feature","geometry":{"type":"Polygon","coordinates":[[[106.625060043,52.196471909],[106.451178452,55.178067172],[114.167620937,55.096466438],[113.815427498,52.120575051],[106.625060043,52.196471909]]]},"properties":{"id":"5km10km.23","":"","NAME":"УКИ-6"}},{"type":"Feature","geometry":{"type":"Polygon","coordinates":[[[117.540663189,57.889738829],[117.223089696,60.866213901],[126.277840263,60.816254783],[125.834632467,57.844093259],[117.540663189,57.889738829]]]},"properties":{"id":"5km10km.24","":"","NAME":"УКИ-12"}},{"type":"Feature","geometry":{"type":"Polygon","coordinates":[[[117.209144904,55.00714068],[116.899068292,57.98420855],[125.220200333,57.980356193],[124.900783195,55.003763467],[117.209144904,55.00714068]]]},"properties":{"id":"5km10km.25","":"","NAME":"УКИ-11"}},{"type":"Feature","geometry":{"type":"Polygon","coordinates":[[[113.821069461,52.118901049],[113.478939798,55.095323124],[121.194694095,55.167828728],[121.010621429,52.186572571],[113.821069461,52.118901049]]]},"properties":{"id":"5km10km.26","":"","NAME":"УКИ-10"}},{"type":"Feature","geometry":{"type":"Polygon","coordinates":[[[112.111188076,49.303930849],[111.887940339,52.285717935],[119.101168136,52.286046509],[118.878257166,49.304397953],[112.111188076,49.303930849]]]},"properties":{"id":"5km10km.27","":"","NAME":"УКИ-9 A"}},{"type":"Feature","geometry":{"type":"Polygon","coordinates":[[[105.343515606,49.321276443],[105.135175712,52.303458653],[112.350013176,52.288712593],[112.111713454,49.307590075],[105.343515606,49.321276443]]]},"properties":{"id":"5km10km.28","":"","NAME":"УКИ-5"}},{"type":"Feature","geometry":{"type":"Polygon","coordinates":[[[65.278062859,62.065998641],[64.756464789,65.036691629],[75.216258204,65.037611886],[74.697102441,62.066939451],[65.278062859,62.065998641]]]},"properties":{"id":"5km10km.29","":"","NAME":"УКТ-2 A"}},{"type":"Feature","geometry":{"type":"Polygon","coordinates":[[[67.49104535,64.776586623],[66.861856926,67.744463216],[78.515620385,67.731034083],[77.844774585,64.764642967],[67.49104535,64.776586623]]]},"properties":{"id":"5km10km.30","":"","NAME":"УКТ-10"}},{"type":"Feature","geometry":{"type":"Polygon","coordinates":[[[31.707574366,43.295322716],[31.10690441,46.252245251],[37.479274121,46.729359162],[37.761736025,43.748583161],[31.707574366,43.295322716]]]},"properties":{"id":"5km10km.31","":"","NAME":"УКЛ-32"}},{"type":"Feature","geometry":{"type":"Polygon","coordinates":[[[100.9345151,57.922874999],[100.560588301,60.897539482],[109.631544564,60.890849734],[109.241297136,57.916777351],[100.9345151,57.922874999]]]},"properties":{"id":"5km10km.32","":"","NAME":"УКИ-4"}},{"type":"Feature","geometry":{"type":"Polygon","coordinates":[[[78.101366577,50.467060963],[77.730685533,53.442706305],[85.145819765,53.568182761],[85.039714117,50.584533618],[78.101366577,50.467060963]]]},"properties":{"id":"5km10km.33","":"","NAME":"УКТ-16"}},{"type":"Feature","geometry":{"type":"Polygon","coordinates":[[[67.19710271,67.529175086],[66.356869901,70.490362897],[79.575021569,70.492787837],[78.743080768,67.531497779],[67.19710271,67.529175086]]]},"properties":{"id":"5km10km.34","":"","NAME":"УКТ-11"}},{"type":"Feature","geometry":{"type":"Polygon","coordinates":[[[65.250397629,70.334967506],[64.097493051,73.289150921],[79.466612743,73.305142282],[78.376641061,70.348542658],[65.250397629,70.334967506]]]},"properties":{"id":"5km10km.35","":"","NAME":"УКТ-12"}},{"type":"Feature","geometry":{"type":"Polygon","coordinates":[[[59.709264213,59.52441194],[68.394503031,59.448721708],[67.956999516,56.477618819],[59.964309493,56.546733195],[59.709264213,59.52441194]]]},"properties":{"id":"5km10km.36","":"","NAME":"УКТ-4","Центр":"64 00"}},{"type":"Feature","geometry":{"type":"Polygon","coordinates":[[[72.303363616,53.660382474],[72.481402391,56.641194205],[80.426029821,56.233152483],[79.687027268,53.281559223],[72.303363616,53.660382474]]]},"properties":{"id":"5km10km.37","":"","NAME":"УКТ-13"}},{"type":"Feature","geometry":{"type":"Polygon","coordinates":[[[60.179526803,59.384754166],[59.805666884,62.358707138],[69.30786881,62.321099827],[68.835718091,59.350382066],[60.179526803,59.384754166]]]},"properties":{"id":"5km10km.38","":"","NAME":"УКТ-3","Центр":"64 00"}},{"type":"Feature","geometry":{"type":"Polygon","coordinates":[[[67.543574367,59.450755949],[76.222605578,59.458350685],[75.886146616,56.482876659],[67.898594898,56.475760622],[67.543574367,59.450755949]]]},"properties":{"id":"5km10km.39","":"","NAME":"УКТ-8","Центр":"72 00"}},{"type":"Feature","geometry":{"type":"Polygon","coordinates":[[[68.654941711,59.355890187],[68.230480707,62.328305619],[77.729832412,62.329700941],[77.308828242,59.357204879],[68.654941711,59.355890187]]]},"properties":{"id":"5km10km.40","":"","NAME":"УКТ-9"}},{"type":"Feature","geometry":{"type":"Polygon","coordinates":[[[79.269182727,52.742148413],[78.991106184,55.721016523],[86.82383317,55.726773367],[86.558448678,52.747575922],[79.269182727,52.742148413]]]},"properties":{"id":"5km10km.41","":"","NAME":"УКТ-17"}},{"type":"Feature","geometry":{"type":"Polygon","coordinates":[[[77.696378079,63.722058405],[77.123456063,66.690644324],[88.273908729,66.676657312],[87.659008375,63.709568735],[77.696378079,63.722058405]]]},"properties":{"id":"5km10km.42","":"","NAME":"УКТ-27"}},{"type":"Feature","geometry":{"type":"Polygon","coordinates":[[[64.868582569,56.675923941],[72.897611111,56.683425243],[72.617509558,53.7054235],[65.165247431,53.698533093],[64.868582569,56.675923941]]]},"properties":{"id":"5km10km.43","":"","NAME":"УКТ-7","Центр":"69 00","F1_пар":"54 00","F2_пар":"56 00"}},{"type":"Feature","geometry":{"type":"Polygon","coordinates":[[[77.229077641,60.960459463],[76.729368801,63.930910374],[86.772700085,63.947984322],[86.32005657,60.975895265],[77.229077641,60.960459463]]]},"properties":{"id":"5km10km.44","":"","NAME":"УКТ-26"}},{"type":"Feature","geometry":{"type":"Polygon","coordinates":[[[77.96539548,66.585097098],[77.20433683,69.548082602],[89.834362961,69.546712869],[89.068682155,66.58379973],[77.96539548,66.585097098]]]},"properties":{"id":"5km10km.45","":"","NAME":"УКТ-28"}},{"type":"Feature","geometry":{"type":"Polygon","coordinates":[[[77.90818786,69.375798372],[76.92844373,72.334775101],[91.474613431,72.320057103],[90.439319856,69.363265092],[77.90818786,69.375798372]]]},"properties":{"id":"5km10km.46","":"","NAME":"УКТ-29"}},{"type":"Feature","geometry":{"type":"Polygon","coordinates":[[[118.225099665,49.319399826],[118.404976664,52.302236141],[121.109884118,52.206285533],[120.763381492,49.229373768],[118.225099665,49.319399826]]]},"properties":{"id":"5km10km.47","":"","NAME":"УКИ-9 B"}},{"type":"Feature","geometry":{"type":"Polygon","coordinates":[[[120.784671483,55.309085105],[125.876660531,55.111415963],[125.455489274,52.65324456],[120.65210298,52.840301983],[120.784671483,55.309085105]]]},"properties":{"id":"5km10km.48","":"","NAME":"УКИ-10"}},{"type":"Feature","geometry":{"type":"Polygon","coordinates":[[[84.25784436,58.092078314],[83.931143154,61.067823895],[93.041828142,61.022123009],[92.598844982,58.050569301],[84.25784436,58.092078314]]]},"properties":{"id":"5km10km.49","":"","NAME":"УКТ-19"}},{"type":"Feature","geometry":{"type":"Polygon","coordinates":[[[106.585712959,55.152354818],[106.880901343,58.131292189],[110.091037684,57.994754823],[109.554482467,55.02621863],[106.585712959,55.152354818]]]},"properties":{"id":"5km10km.50","":"","NAME":"УКИ-3 B"}},{"type":"Feature","geometry":{"type":"Polygon","coordinates":[[[142.30066693,57.92975748],[141.914532723,60.904022131],[150.987867229,60.907301511],[150.609933067,57.932706452],[142.30066693,57.92975748]]]},"properties":{"id":"5km10km.51","":"","NAME":"УКД-13"}},{"type":"Feature","geometry":{"type":"Polygon","coordinates":[[[150.47273833333333,57.945408888888885],[150.1021863888889,60.92017],[159.1783061111111,60.91093333333333],[158.7843038888889,57.93690972222222],[150.47273833333333,57.945408888888885]]]},"properties":{"id":"5km10km.52","":"","NAME":"УКД-14"}},{"type":"Feature","geometry":{"type":"Polygon","coordinates":[[[158.6776957,57.933461275],[158.28025661111113,60.90730315277778],[167.35574755277779,60.91941804444444],[166.98879831388888,57.94447424722222],[158.6776957,57.933461275]]]},"properties":{"id":"5km10km.53","":"","NAME":"УКД-18"}},{"type":"Feature","geometry":{"type":"Polygon","coordinates":[[[155.56820508333334,55.172015719444445],[155.24496803333332,58.14854215555555],[163.6048855472222,58.15339901666667],[163.2928467638889,55.17656771666667],[155.56820508333334,55.172015719444445]]]},"properties":{"id":"5km10km.54","":"","NAME":"УКД-17"}},{"type":"Feature","geometry":{"type":"Polygon","coordinates":[[[155.33902886944446,52.33897510833334],[155.032822675,55.316716694444445],[162.788153575,55.353363819444446],[162.5626195416667,52.373197841666666],[155.33902886944446,52.33897510833334]]]},"properties":{"id":"5km10km.55","":"","NAME":"УКД-16"}},{"type":"Feature","geometry":{"type":"Polygon","coordinates":[[[155.04666850833334,49.91847843611111],[154.78671820833333,52.44588775833333],[159.82061824166666,52.540908188888885],[159.80289085,50.00816831111111],[155.04666850833334,49.91847843611111]]]},"properties":{"id":"5km10km.56","":"","NAME":"УКД-16"}},{"type":"Feature","geometry":{"type":"Polygon","coordinates":[[[152.348540805,47.229265966],[151.948150005,44.255558638],[147.377357478,44.463925378],[147.532836736,47.44856544],[152.348540805,47.229265966]]]},"properties":{"id":"5km10km.57","":"","NAME":"УКД-7 B"}},{"type":"Feature","geometry":{"type":"Polygon","coordinates":[[[151.55630829,51.001480337],[156.285150096,51.004591995],[156.092810836,46.581334615],[151.762059846,46.578485348],[151.55630829,51.001480337]]]},"properties":{"id":"5km10km.58","":"","NAME":"УКД-15"}},{"type":"Feature","geometry":{"type":"Polygon","coordinates":[[[74.386473921,62.208157671],[74.873867475,65.1799959],[78.5363432,65.017090455],[77.688330416,62.061276775],[74.386473921,62.208157671]]]},"properties":{"id":"5km10km.59","":"","NAME":"УКТ-2 B"}},{"type":"Feature","geometry":{"type":"Polygon","coordinates":[[[84.235974215,66.538058227],[106.428592507,66.491956103],[104.285560055,60.612445833],[86.258107252,60.650113156],[84.235974215,66.538058227]]]},"properties":{"id":"5km10km.60","":"","NAME":"УКТ-101"}},{"type":"Feature","geometry":{"type":"Polygon","coordinates":[[[42.883740145,45.389412311],[42.705526721,48.373369783],[49.34737492,48.371886697],[49.166296151,45.387936112],[42.883740145,45.389412311]]]},"properties":{"id":"5km10km.61","":"","NAME":"УКЛ-11"}},{"type":"Feature","geometry":{"type":"Polygon","coordinates":[[[36.511860584,45.404630719],[42.797477993,45.42316779],[42.660641641,42.436869461],[36.682412309,42.419169325],[36.511860584,45.404630719]]]},"properties":{"id":"5km10km.62","":"","NAME":"УКЛ-37"}},{"type":"Feature","geometry":{"type":"Polygon","coordinates":[[[42.593279984,42.491148566],[42.418032306,45.476425932],[48.711723757,45.499787302],[48.578933641,42.51342785],[42.593279984,42.491148566]]]},"properties":{"id":"5km10km.63","":"","NAME":"УКЛ-10"}},{"type":"Feature","geometry":{"type":"Polygon","coordinates":[[[39.728390512,51.295609314],[46.778568689,51.280948172],[46.555970473,48.299736671],[39.921231504,48.313674577],[39.728390512,51.295609314]]]},"properties":{"id":"5km10km.64","":"","NAME":"УКЛ-8"}},{"type":"Feature","geometry":{"type":"Polygon","coordinates":[[[85.307268819,71.965806013],[113.91663407,71.87588473],[110.400707056,66.057144557],[88.547860516,66.126200498],[85.307268819,71.965806013]]]},"properties":{"id":"5km10km.65","":"","NAME":"УКТ-102"}},{"type":"Feature","geometry":{"type":"Polygon","coordinates":[[[120.260321503,66.451324617],[142.378166525,66.406908747],[140.25037012,60.526640878],[122.272200584,60.562899518],[120.260321503,66.451324617]]]},"properties":{"id":"5km10km.66","":"","NAME":"УКД-104"}},{"type":"Feature","geometry":{"type":"Polygon","coordinates":[[[137.97293194444444,66.38929305555556],[160.11199722222221,66.5224986111111],[158.21289027777777,60.62644],[140.2048436111111,60.51672305555555],[137.97293194444444,66.38929305555556]]]},"properties":{"id":"5km10km.67","":"","NAME":"УКД-106"}},{"type":"Feature","geometry":{"type":"Polygon","coordinates":[[[156.0179785916667,66.34908568055555],[178.12053777222224,66.47857093055556],[176.22223745555556,60.58234274166667],[158.25388840555556,60.47688313055556],[156.0179785916667,66.34908568055555]]]},"properties":{"id":"5km10km.68","":"","NAME":"УКД-108"}},{"type":"Feature","geometry":{"type":"Polygon","coordinates":[[[166.39458445,71.20971330277779],[193.8939420972222,71.1151700861111],[190.6004814,65.28769497777778],[169.4061208027778,65.36077369166667],[166.39458445,71.20971330277779]]]},"properties":{"id":"5km10km.69","":"","NAME":"УКД-109"}},{"type":"Feature","geometry":{"type":"Polygon","coordinates":[[[166.99903944444443,59.964818825],[167.15222883055557,61.192243041666664],[172.34866766666667,60.935545041666664],[172.00741006944443,59.717420705555554],[166.99903944444443,59.964818825]]]},"properties":{"id":"5km10km.70","":"","NAME":"УКД-18"}},{"type":"Feature","geometry":{"type":"Polygon","coordinates":[[[150.44934713055557,71.89535067222224],[179.04930348333332,71.93217224722223],[175.72869730555556,66.09846598611111],[153.88210403333335,66.07007709999999],[150.44934713055557,71.89535067222224]]]},"properties":{"id":"5km10km.71","":"","NAME":"УКД-107"}},{"type":"Feature","geometry":{"type":"Polygon","coordinates":[[[128.661536055,71.897361841],[157.242245869,71.90447225],[153.880072728,66.074056479],[132.044952683,66.068655926],[128.661536055,71.897361841]]]},"properties":{"id":"5km10km.72","":"","NAME":"УКД-105"}},{"type":"Feature","geometry":{"type":"Polygon","coordinates":[[[107.047693584,71.895970862],[135.584825998,71.849526151],[132.14994873,66.024920369],[110.340498312,66.060526993],[107.047693584,71.895970862]]]},"properties":{"id":"5km10km.73","":"","NAME":"УКД-102"}},{"type":"Feature","geometry":{"type":"Polygon","coordinates":[[[119.90755137500001,77.13524766388889],[160.39372951666667,77.26814989166667],[154.38882196944445,71.53476969444445],[126.38554768055556,71.44181106388889],[119.90755137500001,77.13524766388889]]]},"properties":{"id":"5km10km.74","":"","NAME":"УКД-103"}},{"type":"Feature","geometry":{"type":"Polygon","coordinates":[[[126.340468682,71.42518427],[98.49757722,71.33709744],[92.115901177,77.034792911],[132.273770714,77.160433037],[126.340468682,71.42518427]]]},"properties":{"id":"5km10km.75","":"","NAME":"УКТ-104"}},{"type":"Feature","geometry":{"type":"Polygon","coordinates":[[[64.61081576,77.081441784],[104.685508915,77.05822638],[98.507608364,71.343629818],[70.706807983,71.36008082],[64.61081576,77.081441784]]]},"properties":{"id":"5km10km.76","":"","NAME":"УКТ-103"}},{"type":"Feature","geometry":{"type":"Polygon","coordinates":[[[58.628342249,81.882746226],[124.119749581,81.816109886],[110.376562321,76.423650465],[72.12915168,76.464015738],[58.628342249,81.882746226]]]},"properties":{"id":"5km10km.77","":"","NAME":"УКТ-105"}},{"type":"Feature","geometry":{"type":"Polygon","coordinates":[[[43.517611393,79.154685211],[39.110063074,82.041519628],[71.379511301,82.061677393],[67.099996947,79.169504646],[43.517611393,79.154685211]]]},"properties":{"id":"5km10km.78","":"","NAME":"УКЛ-31"}},{"type":"Feature","geometry":{"type":"Polygon","coordinates":[[[102.256129494,66.490945875],[124.39746266,66.44507968],[122.264502032,60.56765799],[104.269391847,60.604824424],[102.256129494,66.490945875]]]},"properties":{"id":"5km10km.79","":"","NAME":"УКД-101"}},{"type":"Feature","geometry":{"type":"Polygon","coordinates":[[[144.843145706,54.36853461],[144.284482401,51.404392819],[139.73330076,51.625140402],[139.967066962,54.605176872],[144.843145706,54.36853461]]]},"properties":{"id":"5km10km.80","":"","NAME":"УКД-10"}},{"type":"Feature","geometry":{"type":"Polygon","coordinates":[[[140.558247936,49.420168654],[140.35971644,46.436960022],[133.955700581,46.445989468],[133.775740037,49.429776407],[140.558247936,49.420168654]]]},"properties":{"id":"5km10km.81","":"","NAME":"УКД-2"}},{"type":"Feature","geometry":{"type":"Polygon","coordinates":[[[140.078426159,51.682869235],[145.32800662,51.429081317],[144.822261136,48.461958409],[139.890253174,48.700261151],[140.078426159,51.682869235]]]},"properties":{"id":"5km10km.82","":"","NAME":"УКД-9 B"}},{"type":"Feature","geometry":{"type":"Polygon","coordinates":[[[145.544155382,48.734802196],[145.351204533,45.751402823],[139.026431587,45.762079775],[138.855187013,48.746105178],[145.544155382,48.734802196]]]},"properties":{"id":"5km10km.83","":"","NAME":"УКД-8"}},{"type":"Feature","geometry":{"type":"Polygon","coordinates":[[[134.183476525,49.376303981],[134.020545606,47.429333666],[129.160570471,47.500436496],[129.126421888,49.450460294],[134.183476525,49.376303981]]]},"properties":{"id":"5km10km.84","":"","NAME":"УКД-3 B"}},{"type":"Feature","geometry":{"type":"Polygon","coordinates":[[[162.58005876666667,54.218720688888894],[162.79516819444444,56.838348836111116],[168.72172375,56.539415299999995],[168.12558906111113,53.939283902777774],[162.58005876666667,54.218720688888894]]]},"properties":{"id":"5km10km.85","":"","NAME":"УКД-17"}},{"type":"Feature","geometry":{"type":"Polygon","coordinates":[[[83.599464317,55.200317235],[83.279313105,58.177167886],[91.645411101,58.179615274],[91.330961099,55.202563316],[83.599464317,55.200317235]]]},"properties":{"id":"5km10km.86","":"","NAME":"УКТ-18"}},{"type":"Feature","geometry":{"type":"Polygon","coordinates":[[[28.723322325,66.630079455],[28.063564707,69.596099922],[40.711270254,69.532237358],[39.839026405,66.573943163],[28.723322325,66.630079455]]]},"properties":{"id":"5km10km.87","":"","NAME":"УКЛ-1"}},{"type":"Feature","geometry":{"type":"Polygon","coordinates":[[[36.735169577,65.192689208],[36.061314943,68.157461974],[47.92907678,68.15780727],[47.256302334,65.192993924],[36.735169577,65.192689208]]]},"properties":{"id":"5km10km.88","":"","NAME":"УКЛ-17"}},{"type":"Feature","geometry":{"type":"Polygon","coordinates":[[[36.192227147,67.682770699],[35.344911938,70.643087474],[48.668446842,70.642629239],[47.819057708,67.682352674],[36.192227147,67.682770699]]]},"properties":{"id":"5km10km.89","":"","NAME":"УКЛ-30"}},{"type":"Feature","geometry":{"type":"Polygon","coordinates":[[[46.165653866,65.235388429],[56.704439286,65.239892442],[56.184334057,62.270832915],[46.698738599,62.266763654],[46.165653866,65.235388429]]]},"properties":{"id":"5km10km.90","":"","NAME":"УКЛ-25","Центр":"Новый в A"}},{"type":"Feature","geometry":{"type":"Polygon","coordinates":[[[29.665734901,63.827455917],[29.089043995,66.794814749],[40.289786157,66.781520859],[39.672223946,63.815402042],[29.665734901,63.827455917]]]},"properties":{"id":"5km10km.91","":"","NAME":"УКЛ-2"}},{"type":"Feature","geometry":{"type":"Polygon","coordinates":[[[37.419891555,62.387999427],[36.896597198,65.353311517],[47.479981584,65.339908218],[46.918467128,62.375990347],[37.419891555,62.387999427]]]},"properties":{"id":"5km10km.92","":"","NAME":"УКЛ-16"}},{"type":"Feature","geometry":{"type":"Polygon","coordinates":[[[51.746357028,68.985220633],[46.047104347,77.680674743],[74.173723535,77.669381938],[68.387637785,68.978433194],[51.746357028,68.985220633]]]},"properties":{"id":"5km10km.93","":"","NAME":"УКЛ-101"}},{"type":"Feature","geometry":{"type":"Polygon","coordinates":[[[29.239201809,61.006613376],[28.738975594,63.976027429],[38.803097574,63.991788884],[38.34603658,61.020830822],[29.239201809,61.006613376]]]},"properties":{"id":"5km10km.94","":"","NAME":"УКЛ-3"}},{"type":"Feature","geometry":{"type":"Polygon","coordinates":[[[35.590194627,59.571828949],[35.155239394,62.543429191],[44.729174352,62.547346702],[44.304665587,59.575295568],[35.590194627,59.571828949]]]},"properties":{"id":"5km10km.95","":"","NAME":"УКЛ-15"}},{"type":"Feature","geometry":{"type":"Polygon","coordinates":[[[133.105021493,44.414876067],[132.945220314,47.399824086],[139.462965816,47.388476612],[139.281858428,44.404117097],[133.105021493,44.414876067]]]},"properties":{"id":"5km10km.96","":"","NAME":"УКД-19"}},{"type":"Feature","geometry":{"type":"Polygon","coordinates":[[[43.14754369,48.363361969],[42.977322958,45.379209184],[36.696666668,45.369999999],[36.507570047,48.353656623],[43.14754369,48.363361969]]]},"properties":{"id":"5km10km.97","":"","NAME":"УКЛ-9 A"}},{"type":"Feature","geometry":{"type":"Polygon","coordinates":[[[35.448388885,54.23605961],[42.992287043,54.222676339],[42.735413086,51.241858349],[35.679911025,51.255385593],[35.448388885,54.23605961]]]},"properties":{"id":"5km10km.98","":"","NAME":"УКЛ-7"}},{"type":"Feature","geometry":{"type":"Polygon","coordinates":[[[49.558672833,54.016591838],[57.040352002,53.815137741],[56.583123503,50.844409843],[49.587556562,51.032857827],[49.558672833,54.016591838]]]},"properties":{"id":"5km10km.99","":"","NAME":"УКЛ-21"}},{"type":"Feature","geometry":{"type":"Polygon","coordinates":[[[56.696301409,67.320025552],[55.86416174,70.281218516],[68.949784627,70.287940785],[68.14068943,67.325908395],[56.696301409,67.320025552]]]},"properties":{"id":"5km10km.100","":"","NAME":"УКТ-30"}},{"type":"Feature","geometry":{"type":"Polygon","coordinates":[[[57.251929247,64.757419456],[56.595147908,67.722817902],[68.235622295,67.728805258],[67.597483968,64.762744442],[57.251929247,64.757419456]]]},"properties":{"id":"5km10km.101","":"","NAME":"УКТ-1"}},{"type":"Feature","geometry":{"type":"Polygon","coordinates":[[[45.555181331,70.354500691],[58.682535047,70.345911789],[57.842259307,67.384940908],[46.365934269,67.392454771],[45.555181331,70.354500691]]]},"properties":{"id":"5km10km.102","":"","NAME":"УКЛ-38"}},{"type":"Feature","geometry":{"type":"Polygon","coordinates":[[[46.273590541,67.771762493],[57.934871898,67.764387154],[57.273729731,64.799123089],[46.911732112,64.805681466],[46.273590541,67.771762493]]]},"properties":{"id":"5km10km.103","":"","NAME":"УКЛ-26"}},{"type":"Feature","geometry":{"type":"Polygon","coordinates":[[[43.417678323,62.493824938],[52.966540108,62.480847054],[52.522516436,59.509093706],[43.827555209,59.520918157],[43.417678323,62.493824938]]]},"properties":{"id":"5km10km.104","":"","NAME":"УКЛ-18","Центр":"Новый в A"}},{"type":"Feature","geometry":{"type":"Polygon","coordinates":[[[55.991969136,62.094012472],[55.439645322,65.062080718],[65.906959136,65.084719429],[65.419071446,62.114411385],[55.991969136,62.094012472]]]},"properties":{"id":"5km10km.105","":"","NAME":"УКЛ-27","Центр":"Новый в A"}},{"type":"Feature","geometry":{"type":"Polygon","coordinates":[[[51.926241171,59.405800307],[51.527556198,62.379065734],[61.039316177,62.359917385],[60.590426675,59.388349623],[51.926241171,59.405800307]]]},"properties":{"id":"5km10km.106","":"","NAME":"УКЛ-24","Центр":"Новый в A"}},{"type":"Feature","geometry":{"type":"Polygon","coordinates":[[[62.142753411,50.79637431],[55.161846994,50.8056891],[54.92997444,53.7862228],[62.395850723,53.776283228],[62.142753411,50.79637431]]]},"properties":{"id":"5km10km.107","":"","NAME":"УКТ-6"}},{"type":"Feature","geometry":{"type":"Polygon","coordinates":[[[57.751435441,53.636417519],[57.461848601,56.614103685],[65.477371894,56.616026125],[65.192126754,53.638203318],[57.751435441,53.636417519]]]},"properties":{"id":"5km10km.108","":"","NAME":"УКТ-5"}},{"type":"Feature","geometry":{"type":"Polygon","coordinates":[[[51.969434708,56.551608997],[51.619736195,59.5267471],[60.317416533,59.528805093],[59.972711092,56.553503854],[51.969434708,56.551608997]]]},"properties":{"id":"5km10km.109","":"","NAME":"УКЛ-23"}},{"type":"Feature","geometry":{"type":"Polygon","coordinates":[[[49.692953011,51.157004701],[42.656601113,51.167691409],[42.422350652,54.147973397],[49.951623338,54.136557187],[49.692953011,51.157004701]]]},"properties":{"id":"5km10km.110","":"","NAME":"УКЛ-12"}},{"type":"Feature","geometry":{"type":"Polygon","coordinates":[[[147.566396118,46.259576218],[147.412319401,43.273728295],[141.351208987,43.267281581],[141.184584839,46.252864304],[147.566396118,46.259576218]]]},"properties":{"id":"5km10km.111","":"","NAME":"УКД-7 A"}},{"type":"Feature","geometry":{"type":"Polygon","coordinates":[[[38.341517852,52.807411087],[38.06834872,55.785861177],[45.911993015,55.786475241],[45.640184719,52.807982966],[38.341517852,52.807411087]]]},"properties":{"id":"5km10km.112","":"","NAME":"САСОВ"}},{"type":"Feature","geometry":{"type":"Polygon","coordinates":[[[27.494805027,58.194646573],[27.075093496,61.167192333],[36.226040627,61.19056741],[35.865580179,58.216035464],[27.494805027,58.194646573]]]},"properties":{"id":"5km10km.113","":"","NAME":"УКЛ-4 A"}},{"type":"Feature","geometry":{"type":"Polygon","coordinates":[[[44.71029401,52.75268578],[44.426829839,55.730614085],[52.260842292,55.74040167],[51.99903695,52.761797299],[44.71029401,52.75268578]]]},"properties":{"id":"5km10km.114","":"","NAME":"Ульян"}},{"type":"Feature","geometry":{"type":"Polygon","coordinates":[[[50.129674937,56.717339917],[58.159615304,56.644462266],[57.787284052,53.669875964],[50.337279108,53.737473841],[50.129674937,56.717339917]]]},"properties":{"id":"5km10km.115","":"","NAME":"УКЛ-22"}},{"type":"Feature","geometry":{"type":"Polygon","coordinates":[[[43.941801122,56.695712033],[43.588224969,59.670686002],[52.322699215,59.673602649],[51.976227122,56.698396928],[43.941801122,56.695712033]]]},"properties":{"id":"5km10km.116","":"","NAME":"УКЛ-19"}},{"type":"Feature","geometry":{"type":"Polygon","coordinates":[[[27.826319075,55.367373801],[27.480245396,58.342807133],[35.887360171,58.363288088],[35.589507333,55.386294641],[27.826319075,55.367373801]]]},"properties":{"id":"5km10km.117","":"","NAME":"УКЛ-5"}},{"type":"Feature","geometry":{"type":"Polygon","coordinates":[[[35.812385351,56.774137732],[35.444817102,59.748646357],[44.202533144,59.760123628],[43.862982917,56.784702341],[35.812385351,56.774137732]]]},"properties":{"id":"5km10km.118","":"","NAME":"УКЛ-14"}},{"type":"Feature","geometry":{"type":"Polygon","coordinates":[[[42.813139008,54.001344367],[42.56297786,56.980092892],[50.652982606,56.94139665],[50.314729458,53.965443169],[42.813139008,54.001344367]]]},"properties":{"id":"5km10km.119","":"","NAME":"УКЛ-20"}},{"type":"Feature","geometry":{"type":"Polygon","coordinates":[[[35.460647948,54.11348961],[35.181185601,57.091161748],[43.298115439,57.075863408],[42.983729389,54.099304363],[35.460647948,54.11348961]]]},"properties":{"id":"5km10km.120","":"","NAME":"УКЛ-13"}},{"type":"Feature","geometry":{"type":"Polygon","coordinates":[[[30.887404958,51.135132217],[30.656415416,55.554086155],[35.91581751,55.542109996],[35.628524584,51.124329941],[30.887404958,51.135132217]]]},"properties":{"id":"5km10km.121","":"","NAME":"УКЛ-6"}},{"type":"Feature","geometry":{"type":"Polygon","coordinates":[[[34.956244904,54.152067517],[34.754912698,57.13223984],[40.815837916,57.118766626],[40.573101882,54.139568594],[34.956244904,54.152067517]]]},"properties":{"id":"5km10km.122","":"","NAME":"МУДР"}},{"type":"Feature","geometry":{"type":"Polygon","coordinates":[[[40.573734674,51.28643788],[40.361013026,48.304239618],[33.726754406,48.306819835],[33.519640964,51.289189661],[40.573734674,51.28643788]]]},"properties":{"id":"5km10km.123","":"","NAME":"УКЛ-34"}},{"type":"Feature","geometry":{"type":"Polygon","coordinates":[[[31.212224552,45.82391405],[31.022761805,48.807414011],[37.720967413,48.814626099],[37.545965199,45.830872816],[31.212224552,45.82391405]]]},"properties":{"id":"5km10km.124","":"","NAME":"УКЛ-33"}},{"type":"Feature","geometry":{"type":"Polygon","coordinates":[[[20.012947352,56.904452822],[19.66246394,59.919393306],[28.607596651,59.889299124],[28.183027746,56.87650993],[20.012947352,56.904452822]]]},"properties":{"id":"5km10km.125","":"","NAME":"УКЛ-28"}},{"type":"Feature","geometry":{"type":"Polygon","coordinates":[[[19.886329579,54.144856301],[19.573869271,57.178147903],[27.904565998,57.153042587],[27.534550595,54.121453477],[19.886329579,54.144856301]]]},"properties":{"id":"5km10km.126","":"","NAME":"УКЛ-29"}},{"type":"Feature","geometry":{"type":"Polygon","coordinates":[[[32.954656107,54.080612029],[32.693958844,51.101403277],[25.658240859,51.121932145],[25.444412049,54.102487936],[32.954656107,54.080612029]]]},"properties":{"id":"5km10km.127","":"","NAME":"УКМ-2"}},{"type":"Feature","geometry":{"type":"Polygon","coordinates":[[[33.188593838,56.198496045],[32.899638225,53.226090276],[25.525715409,53.248795192],[25.291290615,56.222720783],[33.188593838,56.198496045]]]},"properties":{"id":"5km10km.128","":"","NAME":"УКМ-1"}},{"type":"Feature","geometry":{"type":"Polygon","coordinates":[[[25.807036798,54.391858532],[26.042639566,51.439371846],[23.138385728,51.310087664],[22.677733633,54.249761441],[25.807036798,54.391858532]]]},"properties":{"id":"5km10km.129","":"","NAME":"УКМ-2"}},{"type":"Feature","geometry":{"type":"Polygon","coordinates":[[[36.437587704,46.39559725],[42.845548863,46.414947161],[42.70352753,43.42367022],[36.615393288,43.40520578],[36.437587704,46.39559725]]]},"properties":{"id":"5km10km.130","":"","NAME":"УКЛ-9А"}},{"type":"Feature","geometry":{"type":"Polygon","coordinates":[[[161.84656916666668,66.3340125],[189.34592666666668,66.21615722222222],[186.05246611111113,58.98981472222222],[164.85810555555554,59.079933611111116],[161.84656916666668,66.3340125]]]},"properties":{"id":"5km10km.131","":"","NAME":"УКД-110"}},{"type":"Feature","properties":{"id":"5km10km.69","":"","NAME":"УКД-109"},"geometry":{"type":"Polygon","coordinates":[[[161.84656911666667,66.33401249444444],[189.34592676111112,66.21615720555556],[186.0524660638889,58.98981477777778],[164.85810546944444,59.07993365277778],[161.84656911666667,66.33401249444444]]]}}]}
